{
  "type": "FeatureCollection",
  "note": "Approximate caldera outline for reference only (Menengai caldera is roughly 12km x 8km) - replace with surveyed boundary from GDC/QGIS",
  "features": [
    {
      "type": "Feature",
      "properties": { "name": "Menengai Caldera (approximate)" },
      "geometry": {
        "type": "Polygon",
        "coordinates": [[
          [36.030, -0.196], [36.038, -0.165], [36.055, -0.150], [36.075, -0.152],
          [36.092, -0.168], [36.098, -0.196], [36.092, -0.225], [36.075, -0.243],
          [36.055, -0.246], [36.038, -0.230], [36.030, -0.196]
        ]]
      }
    }
  ]
}
