{
"type": "FeatureCollection",
"name": "Infrastructures",
"crs": { "type": "name", "properties": { "name": "urn:ogc:def:crs:OGC:1.3:CRS84" } },
"features": [
{ "type": "Feature", "properties": { "OBJECTID": 1, "Name": "Storage Yard", "Date_of_Co": null, "Eastings": 17754, "Northings": 99802, "Elevation": 0, "SHAPE_STAr": 444.45435267900001, "SHAPE_STLe": 86.693247550400002 }, "geometry": { "type": "MultiPolygon", "coordinates": [ [ [ [ 36.104085817178522, -0.181107962713322 ], [ 36.104265445788691, -0.180960660557968 ], [ 36.104374078612565, -0.18107006030548 ], [ 36.104181145255119, -0.181221824884602 ], [ 36.104085817178522, -0.181107962713322 ] ] ] ] } },
{ "type": "Feature", "properties": { "OBJECTID": 2, "Name": "Campsite", "Date_of_Co": null, "Eastings": 17555, "Northings": 99782, "Elevation": 0, "SHAPE_STAr": 42004.72217030001, "SHAPE_STLe": 1292.03098196 }, "geometry": { "type": "MultiPolygon", "coordinates": [ [ [ [ 36.088832525870558, -0.200041218960682 ], [ 36.088636157295987, -0.200683312479806 ], [ 36.087875711008259, -0.200411508325255 ], [ 36.088096602466749, -0.199818814250487 ], [ 36.088832525870558, -0.200041218960682 ] ] ], [ [ [ 36.085664173579204, -0.200559382501573 ], [ 36.085035599708135, -0.200980959929507 ], [ 36.084596880286341, -0.200405986982026 ], [ 36.08448983639574, -0.200239144930548 ], [ 36.084312943682626, -0.199943913688258 ], [ 36.084888947204597, -0.199587381701156 ], [ 36.085140575924534, -0.199417576818444 ], [ 36.08579755546949, -0.198995876956842 ], [ 36.08634761868484, -0.198602561100007 ], [ 36.086591763252429, -0.198396089068505 ], [ 36.087047021270926, -0.197988333498317 ], [ 36.087382215072502, -0.197734911918414 ], [ 36.087699269801284, -0.197526979428867 ], [ 36.088159647938809, -0.197271951781927 ], [ 36.088345810106929, -0.197593344763165 ], [ 36.087266040477083, -0.198720514782098 ], [ 36.087121379751615, -0.198794339548546 ], [ 36.08695087017955, -0.198692596937691 ], [ 36.086198619239283, -0.199567718601829 ], [ 36.085869059105683, -0.200035582885204 ], [ 36.086046796910566, -0.200324049769994 ], [ 36.085664173579204, -0.200559382501573 ] ] ] ] } },
{ "type": "Feature", "properties": { "OBJECTID": 3, "Name": "Lay Down Area", "Date_of_Co": null, "Eastings": 17759, "Northings": 99802, "Elevation": 0, "SHAPE_STAr": 52423.744793500002, "SHAPE_STLe": 1062.5400958800001 }, "geometry": { "type": "MultiPolygon", "coordinates": [ [ [ [ 36.10602625344103, -0.180443962204094 ], [ 36.105952414697342, -0.180438989940643 ], [ 36.105349362452301, -0.180581496208905 ], [ 36.105269736875812, -0.180735226132769 ], [ 36.105200186931739, -0.181084047509645 ], [ 36.105010833907457, -0.183037021280302 ], [ 36.103986342480077, -0.182708012026746 ], [ 36.103774246192032, -0.180835981428124 ], [ 36.103761104219316, -0.180735204271744 ], [ 36.103838670059332, -0.180609096347865 ], [ 36.10392151363677, -0.180538612969512 ], [ 36.105001734376508, -0.179647384585236 ], [ 36.105462650924238, -0.179698553971327 ], [ 36.105968022513721, -0.179747399166496 ], [ 36.105965886395566, -0.179920857353919 ], [ 36.105961192338036, -0.179978585765377 ], [ 36.10602625344103, -0.180443962204094 ] ] ] ] } },
{ "type": "Feature", "properties": { "OBJECTID": 4, "Name": "Water Pump Station & Tree Nursery", "Date_of_Co": null, "Eastings": 17807, "Northings": 99806, "Elevation": 0, "SHAPE_STAr": 55862.015842300003, "SHAPE_STLe": 1096.0934682699999 }, "geometry": { "type": "MultiPolygon", "coordinates": [ [ [ [ 36.110449507799004, -0.177001209595367 ], [ 36.11026045858204, -0.178190130723491 ], [ 36.110222393132027, -0.178431559880084 ], [ 36.110152090920813, -0.178539742914245 ], [ 36.110004441185957, -0.178579233184714 ], [ 36.109951412940205, -0.178593447168868 ], [ 36.109057440742731, -0.1787490114357 ], [ 36.107483823229998, -0.179265057659066 ], [ 36.107240520009299, -0.177993145219543 ], [ 36.107534558140216, -0.177993190984404 ], [ 36.107767280827652, -0.177993227202678 ], [ 36.107834390594228, -0.178000348761857 ], [ 36.108083112223945, -0.178026745586533 ], [ 36.108332470095682, -0.177943109929382 ], [ 36.108515341539963, -0.177825993743197 ], [ 36.108554320479726, -0.177778047178856 ], [ 36.108664977, -0.177641932040885 ], [ 36.108764755859987, -0.177374188059634 ], [ 36.10883127050716, -0.17722358444874 ], [ 36.109014149614019, -0.17705626283892 ], [ 36.109047429070465, -0.176838713700357 ], [ 36.109055899855498, -0.176821662770704 ], [ 36.10911394111028, -0.176704844200183 ], [ 36.109130587179898, -0.176554231904887 ], [ 36.109145449187075, -0.176531795755747 ], [ 36.109160152532851, -0.176502137318074 ], [ 36.110389879097589, -0.176980273590336 ], [ 36.110449507799004, -0.177001209595367 ] ] ] ] } },
{ "type": "Feature", "properties": { "OBJECTID": 6, "Name": "Store", "Date_of_Co": null, "Eastings": 17313, "Northings": 99772, "Elevation": 0, "SHAPE_STAr": 5170.8980454800003, "SHAPE_STLe": 323.598262965 }, "geometry": { "type": "MultiPolygon", "coordinates": [ [ [ [ 36.064584972728255, -0.209083328820241 ], [ 36.064380344149768, -0.208037569188734 ], [ 36.064766335651548, -0.207961019710202 ], [ 36.064970964396601, -0.209006779686463 ], [ 36.064584972728255, -0.209083328820241 ] ] ] ] } },
{ "type": "Feature", "properties": { "OBJECTID": 0, "Name": "Procurement Store", "Date_of_Co": "1899-12-30", "Eastings": 17758, "Northings": 99802, "Elevation": 0, "SHAPE_STAr": 0.0, "SHAPE_STLe": 0.0 }, "geometry": { "type": "MultiPolygon", "coordinates": [ [ [ [ 36.104733928483149, -0.181382853468374 ], [ 36.104707015660608, -0.181459239399443 ], [ 36.104467643505686, -0.181363388720755 ], [ 36.104496463153623, -0.181237090236263 ], [ 36.104733928483149, -0.181382853468374 ] ] ] ] } },
{ "type": "Feature", "properties": { "OBJECTID": 0, "Name": "Store", "Date_of_Co": "1899-12-30", "Eastings": 17755, "Northings": 99802, "Elevation": 0, "SHAPE_STAr": 0.0, "SHAPE_STLe": 0.0 }, "geometry": { "type": "MultiPolygon", "coordinates": [ [ [ [ 36.1044568267274, -0.18123460142402 ], [ 36.10443672457599, -0.1813015331875 ], [ 36.104312484670849, -0.181240657034017 ], [ 36.104326444519465, -0.18118696232306 ], [ 36.104388103701794, -0.181219087190039 ], [ 36.104419566611497, -0.181223385308067 ], [ 36.1044568267274, -0.18123460142402 ] ] ] ] } },
{ "type": "Feature", "properties": { "OBJECTID": 0, "Name": "Pump House1", "Date_of_Co": "1899-12-30", "Eastings": 0, "Northings": 99805, "Elevation": 0, "SHAPE_STAr": 0.0, "SHAPE_STLe": 0.0 }, "geometry": { "type": "MultiPolygon", "coordinates": [ [ [ [ 36.108228103801046, -0.178519894405229 ], [ 36.10821130927544, -0.178600860247826 ], [ 36.108063765573512, -0.178574063492864 ], [ 36.108080777515013, -0.17849420022116 ], [ 36.108228103801046, -0.178519894405229 ] ] ] ] } },
{ "type": "Feature", "properties": { "OBJECTID": 0, "Name": "Pumphouse2", "Date_of_Co": "1899-12-30", "Eastings": 17797, "Northings": 99805, "Elevation": 0, "SHAPE_STAr": 0.0, "SHAPE_STLe": 0.0 }, "geometry": { "type": "MultiPolygon", "coordinates": [ [ [ [ 36.108162456947923, -0.178420704321042 ], [ 36.108156333290722, -0.17846568437745 ], [ 36.108096704172311, -0.178456890719824 ], [ 36.108103607003741, -0.178412632220841 ], [ 36.108162456947923, -0.178420704321042 ] ] ] ] } },
{ "type": "Feature", "properties": { "OBJECTID": 0, "Name": "Infrastructure house", "Date_of_Co": "1899-12-30", "Eastings": 17810, "Northings": 99805, "Elevation": 0, "SHAPE_STAr": 0.0, "SHAPE_STLe": 0.0 }, "geometry": { "type": "MultiPolygon", "coordinates": [ [ [ [ 36.109270733747941, -0.178619889608765 ], [ 36.109282080908777, -0.178528615936845 ], [ 36.109364137516792, -0.17854420618911 ], [ 36.109349818969896, -0.178635524265175 ], [ 36.109270733747941, -0.178619889608765 ] ] ] ] } },
{ "type": "Feature", "properties": { "OBJECTID": 0, "Name": "Security house", "Date_of_Co": "1899-12-30", "Eastings": 17821, "Northings": 99806, "Elevation": 0, "SHAPE_STAr": 0.0, "SHAPE_STLe": 0.0 }, "geometry": { "type": "MultiPolygon", "coordinates": [ [ [ [ 36.110293726973069, -0.177447729240366 ], [ 36.110163402251402, -0.177407776001617 ], [ 36.110203086029877, -0.177290835394154 ], [ 36.110330577480376, -0.177330788181664 ], [ 36.110293726973069, -0.177447729240366 ] ] ] ] } },
{ "type": "Feature", "properties": { "OBJECTID": 0, "Name": "GRD Campsite", "Date_of_Co": "1899-12-30", "Eastings": 17562, "Northings": 99784, "Elevation": 0, "SHAPE_STAr": 0.0, "SHAPE_STLe": 0.0 }, "geometry": { "type": "MultiPolygon", "coordinates": [ [ [ [ 36.086906962262333, -0.197586418306831 ], [ 36.086575478273311, -0.197103411787599 ], [ 36.086627812605094, -0.197073041944763 ], [ 36.086715634305371, -0.197154970011398 ], [ 36.087263222711428, -0.196781207374673 ], [ 36.087488185310832, -0.197075549837234 ], [ 36.087360759825678, -0.197152660389139 ], [ 36.087410868543579, -0.197227570441471 ], [ 36.086906962262333, -0.197586418306831 ] ] ] ] } },
{ "type": "Feature", "properties": { "OBJECTID": 0, "Name": "Substation", "Date_of_Co": "1899-12-30", "Eastings": 17212, "Northings": 99783, "Elevation": 0, "SHAPE_STAr": 0.0, "SHAPE_STLe": 0.0 }, "geometry": { "type": "MultiPolygon", "coordinates": [ [ [ [ 36.05604546205177, -0.198918815045452 ], [ 36.055486083326059, -0.199180695296219 ], [ 36.055281854400953, -0.198783058847342 ], [ 36.055372302553074, -0.198692920558776 ], [ 36.055318392353719, -0.198426255606302 ], [ 36.055654959419854, -0.198221675159336 ], [ 36.05604546205177, -0.198918815045452 ] ] ] ] } },
{ "type": "Feature", "properties": { "OBJECTID": 0, "Name": "Water tank", "Date_of_Co": "1899-12-30", "Eastings": 17298, "Northings": 99773, "Elevation": 0, "SHAPE_STAr": 0.0, "SHAPE_STLe": 0.0 }, "geometry": { "type": "MultiPolygon", "coordinates": [ [ [ [ 36.063320842618381, -0.207039757055301 ], [ 36.063342619463647, -0.207041679152109 ], [ 36.06336373393367, -0.207047379017957 ], [ 36.06338354447589, -0.20705668346547 ], [ 36.063401449156821, -0.207069309783886 ], [ 36.063416903951591, -0.207084874328981 ], [ 36.063429439273875, -0.207102904179933 ], [ 36.063438674244004, -0.207122851508796 ], [ 36.06344432826193, -0.207144110225927 ], [ 36.063446229533056, -0.207166034395785 ], [ 36.063444320288163, -0.207187957863334 ], [ 36.063438658538693, -0.207209214494872 ], [ 36.063429416314165, -0.207229158418196 ], [ 36.063416874435042, -0.207247183647194 ], [ 36.063401413980188, -0.207262742494277 ], [ 36.063383504707907, -0.207275362211769 ], [ 36.063363690782595, -0.207284659355982 ], [ 36.063342574240529, -0.207290351438051 ], [ 36.063320796697283, -0.207292265507113 ], [ 36.063299019852522, -0.207290343405392 ], [ 36.063277905384666, -0.207284643535177 ], [ 36.063258094846006, -0.20727533908435 ], [ 36.063240190169587, -0.207262712764078 ], [ 36.063224735379748, -0.207247148218822 ], [ 36.063212200062203, -0.20722911836941 ], [ 36.063202965096067, -0.207209171043607 ], [ 36.063197311080884, -0.207187912330682 ], [ 36.063195409810952, -0.207165988165681 ], [ 36.063197319055334, -0.207144064703048 ], [ 36.063202980802629, -0.207122808075884 ], [ 36.063212223023605, -0.20710286415587 ], [ 36.063224764898216, -0.207084838928721 ], [ 36.063240225348146, -0.207069280081806 ], [ 36.06325813461568, -0.207056660362775 ], [ 36.063277948536999, -0.207047363215498 ], [ 36.063299065076308, -0.207041671129223 ], [ 36.063320842618381, -0.207039757055301 ] ] ] ] } },
{ "type": "Feature", "properties": { "OBJECTID": 0, "Name": "Water tank", "Date_of_Co": "1899-12-30", "Eastings": 17302, "Northings": 99772, "Elevation": 0, "SHAPE_STAr": 0.0, "SHAPE_STLe": 0.0 }, "geometry": { "type": "MultiPolygon", "coordinates": [ [ [ [ 36.063719922863854, -0.207752415438842 ], [ 36.063741699716758, -0.207754337549776 ], [ 36.063762814191854, -0.207760037430698 ], [ 36.063782624736405, -0.207769341893772 ], [ 36.063800529416881, -0.20778196822777 ], [ 36.063815984208411, -0.20779753278798 ], [ 36.063828519524769, -0.207815562653134 ], [ 36.063837754486492, -0.207835509994847 ], [ 36.063843408493753, -0.207856768723086 ], [ 36.063845309752288, -0.207878692901967 ], [ 36.063843400493262, -0.20790061637619 ], [ 36.063837738728587, -0.207921873011849 ], [ 36.063828496488163, -0.207941816936624 ], [ 36.063815954593011, -0.207959842164343 ], [ 36.063800494122418, -0.207975401007459 ], [ 36.063782584835216, -0.207988020718412 ], [ 36.06376277089624, -0.207997317853724 ], [ 36.063741654342181, -0.208003009924801 ], [ 36.063719876788966, -0.20800492398111 ], [ 36.063698099936587, -0.20800300186526 ], [ 36.063676985463665, -0.207997301979969 ], [ 36.06365717492266, -0.207987997513577 ], [ 36.063639270246711, -0.207975371177736 ], [ 36.063623815460097, -0.207959806617357 ], [ 36.063611280148471, -0.207941776753742 ], [ 36.063602045190734, -0.20792182941509 ], [ 36.063596391186223, -0.207900570691058 ], [ 36.063594489928889, -0.207878646517028 ], [ 36.063596399187389, -0.207856723047711 ], [ 36.063602060949918, -0.207835466416427 ], [ 36.063611303186775, -0.20781552249497 ], [ 36.06362384507743, -0.207797497269105 ], [ 36.063639305543091, -0.207781938426157 ], [ 36.063657214825554, -0.207769318713655 ], [ 36.063677028760537, -0.207760021575283 ], [ 36.063698145311839, -0.207754329499999 ], [ 36.063719922863854, -0.207752415438842 ] ] ] ] } },
{ "type": "Feature", "properties": { "OBJECTID": 0, "Name": "Water tank", "Date_of_Co": "1899-12-30", "Eastings": 17305, "Northings": 99772, "Elevation": 0, "SHAPE_STAr": 0.0, "SHAPE_STLe": 0.0 }, "geometry": { "type": "MultiPolygon", "coordinates": [ [ [ [ 36.063994425041734, -0.208473602242896 ], [ 36.064016201899797, -0.208475524368085 ], [ 36.064037316377508, -0.208481224263759 ], [ 36.064057126922037, -0.208490528741657 ], [ 36.064075031599863, -0.208503155090089 ], [ 36.064090486386199, -0.208518719663912 ], [ 36.064103021694976, -0.208536749541427 ], [ 36.064112256646943, -0.20855669689389 ], [ 36.064117910642594, -0.208577955630937 ], [ 36.064119811888006, -0.208599879816417 ], [ 36.06411790261474, -0.208621803294823 ], [ 36.064112240835115, -0.208643059932133 ], [ 36.064102998579557, -0.20866300385597 ], [ 36.064090456669476, -0.208681029080179 ], [ 36.064074996184658, -0.208696587917343 ], [ 36.064057086884354, -0.208709207620076 ], [ 36.064037272933774, -0.208718504745144 ], [ 36.064016156369988, -0.208724196804256 ], [ 36.063994378809205, -0.208726110847259 ], [ 36.063972601951662, -0.208724188717164 ], [ 36.063951487476118, -0.20871848881711 ], [ 36.063931676935134, -0.208709184335898 ], [ 36.063913772261813, -0.208696557985613 ], [ 36.063898317480408, -0.208680993411631 ], [ 36.063885782176385, -0.208662963535655 ], [ 36.063876547228396, -0.208643016186248 ], [ 36.063870893235503, -0.20862175745341 ], [ 36.063868991991292, -0.208599833272782 ], [ 36.063870901264039, -0.208577909799282 ], [ 36.063876563041497, -0.208556653166352 ], [ 36.063885805293502, -0.208536709245829 ], [ 36.063898347199078, -0.208518684023463 ], [ 36.063913807678965, -0.208503125186471 ], [ 36.063931716974537, -0.208490505482199 ], [ 36.063951530921116, -0.208481208354075 ], [ 36.063972647482153, -0.208475516290748 ], [ 36.063994425041734, -0.208473602242896 ] ] ] ] } },
{ "type": "Feature", "properties": { "OBJECTID": 0, "Name": "Water tank", "Date_of_Co": "1899-12-30", "Eastings": 17307, "Northings": 99771, "Elevation": 0, "SHAPE_STAr": 0.0, "SHAPE_STLe": 0.0 }, "geometry": { "type": "MultiPolygon", "coordinates": [ [ [ [ 36.064178331170424, -0.209166269132513 ], [ 36.064200108031891, -0.209168191271356 ], [ 36.064221222510561, -0.20917389118091 ], [ 36.064241033053619, -0.209183195672471 ], [ 36.064258937727537, -0.209195822033944 ], [ 36.064274392507713, -0.20921138661979 ], [ 36.064286927808205, -0.209229416507955 ], [ 36.064296162750047, -0.209249363869354 ], [ 36.06430181673403, -0.209270622613353 ], [ 36.064303717966581, -0.209292546803603 ], [ 36.06430180867968, -0.209314470284447 ], [ 36.064296146886022, -0.209335726921784 ], [ 36.064286904616473, -0.209355670843232 ], [ 36.064274362692871, -0.209373696062727 ], [ 36.064258902195419, -0.209389254892977 ], [ 36.06424099288374, -0.209401874586809 ], [ 36.064221178923397, -0.209411171701275 ], [ 36.064200062351752, -0.20941686374839 ], [ 36.064178284785264, -0.209418777778364 ], [ 36.064156507924324, -0.209416855634606 ], [ 36.06413539344782, -0.209411155720685 ], [ 36.064115582908315, -0.20940185122581 ], [ 36.06409767823888, -0.209389224862486 ], [ 36.064082223463643, -0.209373660276474 ], [ 36.064069688167898, -0.209355630389852 ], [ 36.064060453230049, -0.209335683031507 ], [ 36.064054799248815, -0.209314424291712 ], [ 36.064052898017451, -0.209292500106311 ], [ 36.064054807303854, -0.209270576630383 ], [ 36.064060469095331, -0.209249319997419 ], [ 36.064069711361334, -0.209229376079279 ], [ 36.064082253280432, -0.209211350861642 ], [ 36.064097713772966, -0.209195792031557 ], [ 36.064115623079914, -0.209183172336182 ], [ 36.064135437036242, -0.209173875218666 ], [ 36.064156553605137, -0.209168183167343 ], [ 36.064178331170424, -0.209166269132513 ] ] ] ] } },
{ "type": "Feature", "properties": { "OBJECTID": 0, "Name": "Water tank", "Date_of_Co": "1899-12-30", "Eastings": 17803, "Northings": 99805, "Elevation": 0, "SHAPE_STAr": 0.0, "SHAPE_STLe": 0.0 }, "geometry": { "type": "MultiPolygon", "coordinates": [ [ [ [ 36.108710418034676, -0.177890968749051 ], [ 36.108732195782032, -0.177892890298509 ], [ 36.108753311235425, -0.177898589789601 ], [ 36.10877312281238, -0.177907894046364 ], [ 36.108791028548019, -0.177920520363817 ], [ 36.10880648438539, -0.17793608509776 ], [ 36.108819020706527, -0.177954115321638 ], [ 36.108828256601399, -0.177974063196166 ], [ 36.10883391144187, -0.177995322615132 ], [ 36.108835813408334, -0.178017247621661 ], [ 36.108833904710451, -0.1780391720353 ], [ 36.108828243343083, -0.178060429693614 ], [ 36.1088190013241, -0.178080374693209 ], [ 36.108806459467722, -0.178098401015252 ], [ 36.108790998852115, -0.178113960938961 ], [ 36.108773089240493, -0.178126581683948 ], [ 36.108753274807533, -0.178135879775301 ], [ 36.108732157604948, -0.178141572695382 ], [ 36.108710379268352, -0.178143487467853 ], [ 36.108688601521557, -0.178141565913563 ], [ 36.108667486070338, -0.178135866418174 ], [ 36.108647674496893, -0.178126562158164 ], [ 36.108629768765717, -0.178113935838908 ], [ 36.108614312933177, -0.178098371104825 ], [ 36.108601776616709, -0.178080340882484 ], [ 36.108592540725731, -0.178060393010987 ], [ 36.108586885887945, -0.178039133596179 ], [ 36.108584983922611, -0.178017208594435 ], [ 36.108586892619932, -0.177995284185622 ], [ 36.10859255398514, -0.177974026531606 ], [ 36.108601796000599, -0.177954081535259 ], [ 36.108614337852522, -0.177936055215011 ], [ 36.108629798463284, -0.177920495291444 ], [ 36.108647708070251, -0.177907874544921 ], [ 36.108667522499303, -0.177898576450539 ], [ 36.108688639699224, -0.177892883526308 ], [ 36.108710418034676, -0.177890968749051 ] ] ] ] } },
{ "type": "Feature", "properties": { "OBJECTID": 0, "Name": null, "Date_of_Co": "1899-12-30", "Eastings": 0, "Northings": 0, "Elevation": 0, "SHAPE_STAr": 0.0, "SHAPE_STLe": 0.0 }, "geometry": { "type": "MultiPolygon", "coordinates": [ [ [ [ 36.109533692911242, -0.171830115286735 ], [ 36.110605084487993, -0.171830276028641 ], [ 36.110604984515533, -0.172504405921818 ], [ 36.109533592901847, -0.172504244539198 ], [ 36.109533692911242, -0.171830115286735 ] ] ] ] } }
]
}
