{
"type": "FeatureCollection",
"name": "menengai caldera",
"crs": { "type": "name", "properties": { "name": "urn:ogc:def:crs:OGC:1.3:CRS84" } },
"features": [
{ "type": "Feature", "properties": { "OBJECTID": 1, "Id": 0, "Shape_STLe": 6971.2361993699997 }, "geometry": { "type": "MultiLineString", "coordinates": [ [ [ 36.025406659913187, -0.209773684455028 ], [ 36.026151372640399, -0.21074961245287 ], [ 36.026079392227487, -0.211725385940705 ], [ 36.025756231888828, -0.212113832014419 ], [ 36.025163910838963, -0.212086613592705 ], [ 36.024957475467907, -0.212185959751222 ], [ 36.024661312560923, -0.212185903096038 ], [ 36.02442797214519, -0.212185858454662 ], [ 36.02426642880959, -0.212185827547051 ], [ 36.024033073122908, -0.212267098341155 ], [ 36.023898421285423, -0.212438738482168 ], [ 36.023835576693919, -0.212556182062382 ], [ 36.023718887761774, -0.212655545207333 ], [ 36.02348553214761, -0.212736815852326 ], [ 36.023332944745228, -0.212836172051578 ], [ 36.02318033851256, -0.213034913683472 ], [ 36.023063651313706, -0.213125241671834 ], [ 36.02283027006424, -0.213342037744438 ], [ 36.022614822585091, -0.213640152515416 ], [ 36.022381437875929, -0.213875018453 ], [ 36.022183961945501, -0.214055681020824 ], [ 36.022040338858027, -0.214209248834721 ], [ 36.021905685201666, -0.214389923437572 ], [ 36.021905659318776, -0.214525448909075 ], [ 36.021905626510005, -0.214697114506252 ], [ 36.021815852752113, -0.214841657605951 ], [ 36.021690182272117, -0.21497715868536 ], [ 36.02157348985844, -0.215094591417918 ], [ 36.021519609306566, -0.215266246498868 ], [ 36.021555476546801, -0.215428883988239 ], [ 36.021555440124011, -0.21561861958716 ], [ 36.02143874244193, -0.215763157318289 ], [ 36.021420767171172, -0.215898679233059 ], [ 36.021420721969911, -0.216133589945397 ], [ 36.021438629417929, -0.216350434108718 ], [ 36.021402692660132, -0.216549197696198 ], [ 36.021357789980691, -0.216702784379887 ], [ 36.021357758574169, -0.216865414863412 ], [ 36.021357737623241, -0.216973835185728 ], [ 36.021402587955627, -0.217091299330146 ], [ 36.021402556492589, -0.217253929820196 ], [ 36.021267907634694, -0.217407498857825 ], [ 36.021088369973221, -0.217642374262639 ], [ 36.02093576311605, -0.217841114791996 ], [ 36.020890858513326, -0.218003736378266 ], [ 36.020872853105153, -0.218292853575141 ], [ 36.020872817942625, -0.218473554031635 ], [ 36.020774060339718, -0.218663270015734 ], [ 36.020576573265309, -0.218898141553123 ], [ 36.020468800414037, -0.219295661117208 ], [ 36.020405932264666, -0.219530559165879 ], [ 36.020405900433083, -0.219693189506841 ], [ 36.02048662760307, -0.219919081025656 ], [ 36.020504537831442, -0.220117855025723 ], [ 36.020522412528202, -0.220497329429994 ], [ 36.020639016632046, -0.220831648438671 ], [ 36.020674849205989, -0.221165951381499 ], [ 36.020719675902704, -0.221400870905075 ], [ 36.020854245045733, -0.221653878459792 ], [ 36.020917028011141, -0.221852661546074 ], [ 36.020988781977998, -0.222069516502255 ], [ 36.021033585227435, -0.22242189144192 ], [ 36.021123311612143, -0.222521294744678 ], [ 36.021365615340336, -0.22257555360535 ], [ 36.021473299928928, -0.222629785419988 ], [ 36.021473271241298, -0.222774345863202 ], [ 36.021500157397931, -0.222964086866393 ], [ 36.021536027118678, -0.223108654546449 ], [ 36.021670622966624, -0.223226137052106 ], [ 36.021814170056025, -0.223461076792061 ], [ 36.021850045126499, -0.223578539436627 ], [ 36.021984653573575, -0.223632776807512 ], [ 36.022137213072668, -0.223677982782792 ], [ 36.022298732803016, -0.223795470858002 ], [ 36.022379500780858, -0.223813557249704 ], [ 36.022415365021963, -0.223985230177816 ], [ 36.022451227434203, -0.224165938152786 ], [ 36.022594797921897, -0.224283422695537 ], [ 36.022828114659077, -0.224400925449506 ], [ 36.022962726809837, -0.22443709288108 ], [ 36.023016545656269, -0.224581664437771 ], [ 36.023016511303112, -0.224753330205516 ], [ 36.023151101756248, -0.224897918183097 ], [ 36.023312617906704, -0.225033476621504 ], [ 36.023510032588817, -0.225169042394297 ], [ 36.023509992710395, -0.225367813372637 ], [ 36.023509921929275, -0.225720180106735 ], [ 36.02366241977473, -0.226072577974323 ], [ 36.023859814384515, -0.226307529493571 ], [ 36.023895649145345, -0.226623763493201 ], [ 36.023940454801661, -0.226958069447521 ], [ 36.023958362051275, -0.22716587923151 ], [ 36.023958332796475, -0.227310440001616 ], [ 36.023994203895832, -0.227445973093225 ], [ 36.023994143462616, -0.227744129691093 ], [ 36.023994095792126, -0.227979040949869 ], [ 36.02389533992983, -0.228150686539268 ], [ 36.023895303197186, -0.228331387491095 ], [ 36.023895255400774, -0.228566298728353 ], [ 36.023913167872273, -0.228747003386262 ], [ 36.023841315530014, -0.229018039975062 ], [ 36.023841260207099, -0.229289091388872 ], [ 36.0238771052095, -0.229551115194398 ], [ 36.023895006427324, -0.229786030150437 ], [ 36.023814169932628, -0.230102240036364 ], [ 36.023760251693524, -0.230445560615025 ], [ 36.023760190449345, -0.230743717147175 ], [ 36.023760145857779, -0.230960558261331 ], [ 36.023840872952931, -0.231177416233489 ], [ 36.023930583962333, -0.231349100872807 ], [ 36.023993348674558, -0.231629200492214 ], [ 36.024092008146248, -0.231927377757395 ], [ 36.024190684367888, -0.232144239625908 ], [ 36.024307263070575, -0.232586981570421 ], [ 36.024343099829906, -0.232885145797314 ], [ 36.024360990979829, -0.233165236162364 ], [ 36.024244251153355, -0.233499508467655 ], [ 36.024145432276505, -0.233969310232959 ], [ 36.023912067143009, -0.234086716559293 ], [ 36.023795351593847, -0.234303533018516 ], [ 36.023642739349064, -0.234511306782559 ], [ 36.023463220177817, -0.234637759384753 ], [ 36.023382391752371, -0.234908793565865 ], [ 36.02319387900932, -0.23512559458082 ], [ 36.023077142464871, -0.23544179622814 ], [ 36.022996317655455, -0.235694760171528 ], [ 36.022933462951848, -0.235848342468099 ], [ 36.022861610786002, -0.236110343300198 ], [ 36.022780799154994, -0.236300061875196 ], [ 36.022592269069065, -0.236598177852505 ], [ 36.02239475284901, -0.236950502013569 ], [ 36.022394695560088, -0.237221553064232 ], [ 36.022412595114211, -0.237456467825682 ], [ 36.022565112154702, -0.237700446541757 ], [ 36.022699681820733, -0.237935386427892 ], [ 36.022744512803605, -0.23813416690767 ], [ 36.022816240772165, -0.238459443739501 ], [ 36.022816190812975, -0.238694354739776 ], [ 36.022932818740877, -0.238893150766929 ], [ 36.023013551958876, -0.239073869001131 ], [ 36.023031433794536, -0.239390099286142 ], [ 36.02303141836822, -0.239462379607995 ], [ 36.023157016967126, -0.239679247779598 ], [ 36.023381340426184, -0.239878067307611 ], [ 36.023542866545739, -0.23995941771194 ], [ 36.023659521411908, -0.240031723363581 ], [ 36.023794106234362, -0.240194383387418 ], [ 36.023794052052104, -0.240447364689681 ], [ 36.023811972287234, -0.240582894287739 ], [ 36.023937588225976, -0.240718447305774 ], [ 36.024143962395499, -0.240917263269837 ], [ 36.024377268280809, -0.241079944963169 ], [ 36.024377223621038, -0.241287751143182 ], [ 36.024395100991377, -0.241622051957994 ], [ 36.024377095250806, -0.241884064528707 ], [ 36.02432321424601, -0.242037648629736 ], [ 36.024403960739882, -0.242155121955525 ], [ 36.02457441860431, -0.242435245886648 ], [ 36.024520490618535, -0.242805671247776 ], [ 36.024556352063748, -0.242977345121906 ], [ 36.024906308683917, -0.243230403480759 ], [ 36.025157563751563, -0.243393089711172 ], [ 36.02539088718428, -0.24347445652781 ], [ 36.025624202822023, -0.243591963621251 ], [ 36.025740861636827, -0.243646199653971 ], [ 36.025956253508063, -0.243646247030032 ], [ 36.026234468071095, -0.24364630821905 ], [ 36.026306257546523, -0.243682464277513 ], [ 36.026467772111033, -0.24381802583596 ], [ 36.026683146469978, -0.243899388866688 ], [ 36.026781856050917, -0.243953621023592 ], [ 36.026952366927077, -0.243989798854611 ], [ 36.027131860353158, -0.243989838375115 ], [ 36.027302386985184, -0.243953735615887 ], [ 36.027481888316501, -0.243917634818408 ], [ 36.027652407152083, -0.243917672345034 ], [ 36.027903698116035, -0.243917727643522 ], [ 36.028101150863471, -0.24387259567925 ], [ 36.028163997152816, -0.243764188509849 ], [ 36.028316572609377, -0.243737116806126 ], [ 36.028451186961433, -0.243764251656662 ], [ 36.028549908475526, -0.243764273361974 ], [ 36.028648629998507, -0.243764295066568 ], [ 36.028747365247618, -0.243701071159396 ], [ 36.028810217426297, -0.24356555864977 ], [ 36.028962826237887, -0.243384890380878 ], [ 36.02906155170831, -0.243366841868523 ], [ 36.029214135097732, -0.243303629712584 ], [ 36.029375724466881, -0.243095858025959 ], [ 36.029465506528112, -0.24293324601921 ], [ 36.029564245697699, -0.242851951795944 ], [ 36.029707860280915, -0.242761632283545 ], [ 36.029824548843415, -0.242680341952004 ], [ 36.029842541119507, -0.242481573759437 ], [ 36.029860515833072, -0.242364121428684 ], [ 36.030013118729464, -0.242210558100526 ], [ 36.030210591211272, -0.242075074717247 ], [ 36.030425983936233, -0.242075121713673 ], [ 36.030695213231482, -0.24212939107467 ], [ 36.030910576866901, -0.242264964651274 ], [ 36.031072092311476, -0.242400526515654 ], [ 36.031072066991022, -0.242517982899758 ], [ 36.031072024112767, -0.242716755242009 ], [ 36.03107199290627, -0.242861316945402 ], [ 36.031071963633096, -0.242996843542285 ], [ 36.030991169825249, -0.243096212018703 ], [ 36.030910376013303, -0.243195580479983 ], [ 36.030811613243138, -0.243385296033525 ], [ 36.030757729823748, -0.243547916091436 ], [ 36.030721797742352, -0.24370150497215 ], [ 36.030721746808219, -0.243936417664614 ], [ 36.030676818393708, -0.244189390687891 ], [ 36.030578071171462, -0.244306825290578 ], [ 36.030560104100033, -0.24438813725795 ], [ 36.030578024036771, -0.244523667747222 ], [ 36.030694669602802, -0.24464114980442 ], [ 36.030694638142144, -0.244785711457449 ], [ 36.030676659227211, -0.244921234044665 ], [ 36.03069458894722, -0.2450115890402 ], [ 36.030775347484628, -0.245074852605386 ], [ 36.031008675991458, -0.24513814988758 ], [ 36.031071465432944, -0.24529176057584 ], [ 36.031107305099532, -0.245562821712719 ], [ 36.031241898065161, -0.245689343014144 ], [ 36.031403434903794, -0.24572551921815 ], [ 36.031591878123784, -0.24584301738948 ], [ 36.031591822798546, -0.246096000488402 ], [ 36.031591783245283, -0.246276702701818 ], [ 36.031807124848122, -0.246511663424453 ], [ 36.031923736674266, -0.246782742741044 ], [ 36.031968578515169, -0.246927314539214 ], [ 36.031968528906461, -0.247153192383076 ], [ 36.032022349389621, -0.247279695973401 ], [ 36.032103095993847, -0.247397170462849 ], [ 36.032372299710154, -0.24756889770018 ], [ 36.032668429621502, -0.247731595905602 ], [ 36.032865869496312, -0.247749710209704 ], [ 36.033054334683818, -0.247767822514472 ], [ 36.033215863791867, -0.247840139557973 ], [ 36.033449196699877, -0.247885367273837 ], [ 36.033646654625024, -0.247822165458918 ], [ 36.033799228988222, -0.247804129250729 ], [ 36.033915912406954, -0.247749944506835 ], [ 36.034050529387969, -0.247768044800697 ], [ 36.034149221594667, -0.247903593800251 ], [ 36.034310730955006, -0.248066262252539 ], [ 36.034562007590736, -0.248138599456878 ], [ 36.034732513637927, -0.248201883504691 ], [ 36.034992773074045, -0.248238082211102 ], [ 36.035342770027214, -0.248319476692362 ], [ 36.035531231656655, -0.248355659386571 ], [ 36.035692747157519, -0.248491222659842 ], [ 36.035988899827679, -0.248554534916502 ], [ 36.036222239299548, -0.248572657403204 ], [ 36.036410721014867, -0.248518488654607 ], [ 36.036545360223357, -0.248437202393262 ], [ 36.036644092461188, -0.248392048698238 ], [ 36.036760768236995, -0.24837400446409 ], [ 36.036940259341321, -0.248392114879367 ], [ 36.037092828197579, -0.248401184125976 ], [ 36.037227441583795, -0.248437354833606 ], [ 36.037406940732929, -0.248419324626767 ], [ 36.037622334969548, -0.248419372752113 ], [ 36.037801830198958, -0.248419412853905 ], [ 36.038106972156186, -0.248419481021394 ], [ 36.038349300785001, -0.248374359318435 ], [ 36.03858264872374, -0.248356341091733 ], [ 36.038789080360765, -0.248302176162961 ], [ 36.038914723170457, -0.248320274551722 ], [ 36.039067294291726, -0.248320308609798 ], [ 36.039246811639615, -0.248220961766612 ], [ 36.03945326724638, -0.248058374666145 ], [ 36.039614829113646, -0.247986129269802 ], [ 36.039964853406907, -0.247950066557814 ], [ 36.040162300560617, -0.247941075369511 ], [ 36.040332863106556, -0.247751374527116 ], [ 36.040377758844464, -0.247651997504847 ], [ 36.040530344044306, -0.247588785164626 ], [ 36.040799595525421, -0.247552704308922 ] ] ] } },
{ "type": "Feature", "properties": { "OBJECTID": 2, "Id": 0, "Shape_STLe": 16671.169250200001 }, "geometry": { "type": "MultiLineString", "coordinates": [ [ [ 36.040797168698262, -0.247552908867955 ], [ 36.040958649265363, -0.247647357073592 ], [ 36.041108240865846, -0.247680858500287 ], [ 36.041191336306632, -0.247747812385642 ], [ 36.041440656628218, -0.247798070104878 ], [ 36.041540385328055, -0.247814826381638 ], [ 36.041640100232144, -0.247898518082824 ], [ 36.041739803209893, -0.248032412046856 ], [ 36.041822891324259, -0.24813283416141 ], [ 36.042038964556404, -0.248199818663125 ], [ 36.042271670197302, -0.248216604620143 ], [ 36.042404647102536, -0.248216634258118 ], [ 36.042504379567632, -0.248216656485678 ], [ 36.042687190065642, -0.248367302302772 ], [ 36.042836777311884, -0.248417537959602 ], [ 36.042919844275254, -0.248618363897673 ], [ 36.04308602428781, -0.248802475230153 ], [ 36.043252179358234, -0.2491037244534 ], [ 36.043551333608733, -0.249304598873043 ], [ 36.04373416543897, -0.249354842127079 ], [ 36.043883749999537, -0.249421811165835 ], [ 36.044033312391576, -0.249589184927032 ], [ 36.044249340698826, -0.249856977456352 ], [ 36.044465388417045, -0.250041099466149 ], [ 36.044548458055608, -0.250225192590328 ], [ 36.044565043231209, -0.250392536676127 ], [ 36.044698009304859, -0.250442768033285 ], [ 36.044747841796365, -0.250593385491866 ], [ 36.044880744725177, -0.250928096194293 ], [ 36.045063555315643, -0.251078742752201 ], [ 36.045246384524333, -0.251145720484447 ], [ 36.0453128578377, -0.251212671109806 ], [ 36.045379328326781, -0.251296356784655 ], [ 36.045545538127371, -0.251346595775274 ], [ 36.045794863079053, -0.251380120280319 ], [ 36.046010948138111, -0.251396903151665 ], [ 36.046177146861083, -0.251497344628549 ], [ 36.046359991139255, -0.251497385870633 ], [ 36.046675812003421, -0.25149745710071 ], [ 36.046808789472621, -0.251497487090104 ], [ 36.046891912128991, -0.251447304253536 ], [ 36.047108000229549, -0.251447352972155 ], [ 36.047274222357416, -0.251447390445708 ], [ 36.047440443612842, -0.251447427916956 ], [ 36.047673166192062, -0.251397277855076 ], [ 36.047955742801285, -0.251397341533595 ], [ 36.048271565017366, -0.251397412696792 ], [ 36.048554146397052, -0.251380742176472 ], [ 36.048753631089447, -0.251297117067752 ], [ 36.048969750184199, -0.251163293090094 ], [ 36.049185868403391, -0.251029469056228 ], [ 36.049302242400465, -0.250945824237704 ], [ 36.049485094612074, -0.250912397847756 ], [ 36.049684579424977, -0.250828771666094 ], [ 36.049834194428293, -0.250761869360251 ], [ 36.049950587000744, -0.250594554325224 ], [ 36.05011682436745, -0.250527655698279 ], [ 36.050349546545959, -0.25047750527305 ], [ 36.050482550367086, -0.250360396497749 ], [ 36.050648797997852, -0.250243295142465 ], [ 36.050815068719409, -0.250025789330502 ], [ 36.050948079929434, -0.249875212001583 ], [ 36.051197435678048, -0.249774862425344 ], [ 36.051380280764207, -0.249774903312313 ], [ 36.051579762114578, -0.249708011888346 ], [ 36.051762633090874, -0.249590914018389 ], [ 36.051945499497513, -0.249490550344565 ], [ 36.052327870373396, -0.249222889624405 ], [ 36.052527349065066, -0.249172731372161 ], [ 36.052942909632499, -0.249156089772278 ], [ 36.053375095529773, -0.249122718495666 ], [ 36.053624433333077, -0.249106039798581 ], [ 36.053823893852595, -0.249139551873767 ], [ 36.054056583595035, -0.249240009348818 ], [ 36.054355744597856, -0.249424151252314 ], [ 36.054571771481896, -0.249708680361317 ], [ 36.054638252857643, -0.249742163765284 ], [ 36.054787842619682, -0.249792399113444 ], [ 36.05500391010677, -0.24989285308215 ], [ 36.055120241210041, -0.25001001817664 ], [ 36.055203333959049, -0.25009370728594 ], [ 36.055319686325497, -0.250110467592048 ], [ 36.055502524713681, -0.250143977060281 ], [ 36.055768463302719, -0.250227707107108 ], [ 36.055951297173088, -0.250277950900108 ], [ 36.056134106103961, -0.250445333007277 ], [ 36.056316932635582, -0.250529045455218 ], [ 36.056499734198127, -0.250729896267012 ], [ 36.056665924422624, -0.250880541391406 ], [ 36.056915233403714, -0.250997736577359 ], [ 36.057164564657327, -0.251014526815543 ], [ 36.057397254992523, -0.25111498402519 ], [ 36.057580063169375, -0.251282367372138 ], [ 36.057629904593234, -0.251399517928718 ], [ 36.057812743348144, -0.25143302764754 ], [ 36.057995588653192, -0.251433068716476 ], [ 36.058261516657112, -0.251567002210142 ], [ 36.058477603272621, -0.251583784197546 ], [ 36.058743546227277, -0.251650781317805 ], [ 36.058926385164824, -0.251684291096212 ], [ 36.05902609687756, -0.251784718676357 ], [ 36.059225539777692, -0.251901903053952 ], [ 36.059458230497732, -0.252002360600114 ], [ 36.059724184822556, -0.252019154794572 ], [ 36.0599402680105, -0.252052672130116 ], [ 36.060172981169558, -0.25205272449171 ], [ 36.060239448871599, -0.252153144725802 ], [ 36.060372398240986, -0.25228704867252 ], [ 36.060638352787869, -0.252303842930504 ], [ 36.061004045282409, -0.252303925274532 ], [ 36.061253381184116, -0.252303981412344 ], [ 36.061403012660953, -0.25217014095206 ], [ 36.06155261724448, -0.25215344022974 ], [ 36.061652367221008, -0.252086526034204 ], [ 36.061785346497025, -0.2520865559423 ], [ 36.061918318362096, -0.252120053722142 ], [ 36.062117775739914, -0.252170301759625 ], [ 36.062300618948832, -0.252187077284388 ], [ 36.062516710071876, -0.252187125893163 ], [ 36.062682934524609, -0.252187163282213 ], [ 36.062832535566116, -0.252187196930333 ], [ 36.063065253945403, -0.252170514863248 ], [ 36.063331223991121, -0.252120371440591 ], [ 36.063497451379263, -0.252103674396936 ], [ 36.063663672266443, -0.252120446175658 ], [ 36.063846508308465, -0.252170690528699 ], [ 36.063996113218508, -0.252153989741618 ], [ 36.064228846681715, -0.252070370840157 ], [ 36.064461586703807, -0.251953283045856 ], [ 36.064710927083865, -0.25193660460845 ], [ 36.064877162085615, -0.251886438632999 ], [ 36.065010152864161, -0.251836266082952 ], [ 36.065475600771052, -0.251752698321112 ], [ 36.066024160888553, -0.251669150010251 ], [ 36.066290138103398, -0.251585537364659 ], [ 36.066522901563047, -0.251368043371445 ], [ 36.066805494071431, -0.251317904153688 ], [ 36.067088076460124, -0.251317967399884 ], [ 36.067287532012188, -0.251384949014393 ], [ 36.067653208191707, -0.251468702340332 ], [ 36.068018891884613, -0.251518987654069 ], [ 36.068301474586221, -0.251519050925261 ], [ 36.068467684211058, -0.251586025185385 ], [ 36.068667132608489, -0.251686476793774 ], [ 36.068833343179513, -0.251753451096501 ], [ 36.06898294504488, -0.251753484615845 ], [ 36.06919902726041, -0.251803736524281 ], [ 36.069431742356571, -0.251803788668997 ], [ 36.069697702782548, -0.251803848257963 ], [ 36.069963659573098, -0.251820642351127 ], [ 36.070329351427418, -0.25183745879029 ], [ 36.070695061893453, -0.251770602627293 ], [ 36.071010897994775, -0.251737204298061 ], [ 36.071310103228775, -0.251737271281112 ], [ 36.071625928414178, -0.251754076512884 ], [ 36.071891907839522, -0.251670464255884 ], [ 36.072224391902068, -0.251519928649859 ], [ 36.072639978385865, -0.25141961516496 ], [ 36.072955821495619, -0.251352747521213 ], [ 36.073288303025137, -0.251218946209012 ], [ 36.073521013437528, -0.251244100455236 ], [ 36.07375789593533, -0.25119394963369 ], [ 36.073957372991067, -0.251168892748072 ], [ 36.074144393877525, -0.251093629351397 ], [ 36.074381295823599, -0.250955623063549 ], [ 36.074431183274257, -0.250867777877718 ], [ 36.074456149995662, -0.250717173142637 ], [ 36.074543479642202, -0.250441074290608 ], [ 36.074668209206372, -0.250164982800922 ], [ 36.074805389479529, -0.249964200087853 ], [ 36.074917638850685, -0.24975086062928 ], [ 36.074980011804072, -0.249575162666462 ], [ 36.075004987482465, -0.249386905235437 ], [ 36.075067354899957, -0.249236308665804 ], [ 36.075117255933733, -0.249085709321579 ], [ 36.075117294267351, -0.24890999751126 ], [ 36.075117346247751, -0.248671531676484 ], [ 36.075129837217752, -0.24855857664189 ], [ 36.07521714178494, -0.248395434340542 ], [ 36.075229685470696, -0.248044013433588 ], [ 36.075229723640696, -0.247868301605121 ], [ 36.075229748164141, -0.247755343807432 ], [ 36.075117580897711, -0.247592158479654 ], [ 36.075005408180111, -0.247454073706802 ], [ 36.074992965403574, -0.247341114097145 ], [ 36.074943152528348, -0.247090086181985 ], [ 36.074930712432959, -0.24696457451477 ], [ 36.074955684059475, -0.246788868196896 ], [ 36.07504299105949, -0.246613175520902 ], [ 36.075155234370847, -0.246424937105561 ], [ 36.07518020320704, -0.246261781003097 ], [ 36.075192721887987, -0.246023317876604 ], [ 36.075205226107514, -0.245847608774194 ], [ 36.075367334750588, -0.245671932297749 ], [ 36.075529426292867, -0.245571560987043 ], [ 36.075691518745117, -0.245471188741794 ], [ 36.075816220193488, -0.245320606332909 ], [ 36.076040684932927, -0.2450445356313 ], [ 36.076103057180362, -0.244868837220805 ], [ 36.076152971096356, -0.244655483452307 ], [ 36.076202886761678, -0.24442957848556 ], [ 36.076265270551325, -0.24420367620036 ], [ 36.076365038229184, -0.244053088166323 ], [ 36.076464797852566, -0.243940151842305 ], [ 36.076701726947654, -0.243676634570011 ], [ 36.076863853252561, -0.243413101026868 ], [ 36.076913748202848, -0.243287603543795 ], [ 36.076913782939982, -0.243124441730927 ], [ 36.076976160255562, -0.242923641599266 ], [ 36.077013595876963, -0.24276048783212 ], [ 36.077113358079892, -0.242635001036135 ], [ 36.077238057501447, -0.242496968390653 ], [ 36.077325360396316, -0.242333825289642 ], [ 36.077412656188699, -0.242208335739656 ], [ 36.07745008373761, -0.242082834557908 ], [ 36.07749998031634, -0.241944785753236 ], [ 36.07773688521651, -0.241794225846231 ], [ 36.077874048326741, -0.241668746892789 ], [ 36.078048607101252, -0.241568376510307 ], [ 36.078223155283929, -0.241518210900104 ], [ 36.078422638076695, -0.241468049707015 ], [ 36.078559777371176, -0.241455527862622 ], [ 36.078696935234731, -0.241355150276619 ], [ 36.078821626704226, -0.241254769998166 ], [ 36.078996180282992, -0.241179501873758 ], [ 36.079108404466055, -0.241079118881653 ], [ 36.079245541189742, -0.241079148187817 ], [ 36.079407619578106, -0.241041530079598 ], [ 36.079582157357315, -0.241041567368433 ], [ 36.079756689872688, -0.241066706189024 ], [ 36.080018489145765, -0.241104414882326 ], [ 36.080305230148078, -0.241104476144782 ], [ 36.08046733338638, -0.240953899661983 ], [ 36.080592008245986, -0.240928824724785 ], [ 36.080778995021561, -0.24101672144676 ], [ 36.081053258318256, -0.241066983135164 ], [ 36.08130258528422, -0.241129790753607 ], [ 36.081626727704879, -0.241129859983323 ], [ 36.082025685640986, -0.241067190764336 ], [ 36.082262562252559, -0.241054690986947 ], [ 36.082462034256508, -0.24105473356325 ], [ 36.082611651945086, -0.240992010142886 ], [ 36.082823636248392, -0.240778689478874 ], [ 36.082923403960123, -0.240628099300289 ], [ 36.083110441272503, -0.240477528575228 ], [ 36.083272526353113, -0.240414807687062 ], [ 36.083422137937333, -0.240377186646275 ], [ 36.083621618939326, -0.240339576201724 ], [ 36.08378371898236, -0.240201550384858 ], [ 36.083970748474528, -0.240088631451899 ], [ 36.083995716476963, -0.239925474803298 ], [ 36.084095485058555, -0.239774884381864 ], [ 36.084282532033527, -0.239574109164308 ], [ 36.084494506745799, -0.239410991166983 ], [ 36.084656601539741, -0.239298066741192 ], [ 36.084831166326019, -0.239172594546399 ], [ 36.084955876552236, -0.23898435628254 ], [ 36.084968369191252, -0.238858848854553 ], [ 36.084968408423705, -0.2386705851147 ], [ 36.08496844240009, -0.238507422122484 ], [ 36.084993405858143, -0.238369366942551 ], [ 36.085118104625288, -0.238231332772636 ], [ 36.085230329094394, -0.238130947979507 ], [ 36.085355015717063, -0.238055669257031 ], [ 36.085542057347077, -0.237879994268252 ], [ 36.08560442975687, -0.23770429391545 ], [ 36.08569173248636, -0.237541150065389 ], [ 36.085754098752219, -0.237390551338168 ], [ 36.085903721821715, -0.237302725533633 ], [ 36.086090753920601, -0.237177255485376 ], [ 36.086290263790907, -0.23700158373979 ], [ 36.086327690068337, -0.236876081359708 ], [ 36.08632772377031, -0.236712919071968 ], [ 36.086327760038536, -0.23653720549142 ], [ 36.086340250716482, -0.23642424917326 ], [ 36.086440002572125, -0.236348964062093 ], [ 36.086552224396321, -0.236261130245467 ], [ 36.086689380087108, -0.236173302519126 ], [ 36.086851504133165, -0.235922316705094 ], [ 36.086963751765495, -0.235708972521608 ], [ 36.087088471006851, -0.235470530093418 ], [ 36.087200695392923, -0.235370145733309 ], [ 36.087287975603836, -0.235319959575218 ], [ 36.087475002528464, -0.235219590728637 ], [ 36.087599698563999, -0.235094107184939 ], [ 36.08773688769196, -0.234843114921599 ], [ 36.087786820556268, -0.234529350672 ], [ 36.087836711417353, -0.234416401928288 ], [ 36.087961403164762, -0.234316019969963 ], [ 36.088135972948116, -0.234165443957465 ], [ 36.088273159358664, -0.233927003672381 ], [ 36.088397886899436, -0.233650906805901 ], [ 36.088397935435097, -0.23341243812573 ], [ 36.088485255562141, -0.233161436102006 ], [ 36.088709716888317, -0.232897910929184 ], [ 36.088859370482744, -0.232659472921879 ], [ 36.089121230526651, -0.232408506553541 ], [ 36.089295815437481, -0.232182623922558 ], [ 36.089620010713439, -0.23193167010057 ], [ 36.089769641399087, -0.231806190129203 ], [ 36.090006548885931, -0.231643075775199 ], [ 36.090156179584952, -0.231517595717782 ], [ 36.090343193933577, -0.231479981725717 ], [ 36.090517756066838, -0.231367058036217 ], [ 36.090605060699687, -0.231191360698001 ], [ 36.09071728752668, -0.231078425125866 ], [ 36.090916789564567, -0.230940403724585 ], [ 36.091203568470831, -0.230764747807693 ], [ 36.091440478597498, -0.230589081649971 ], [ 36.091627520812267, -0.230413405277572 ], [ 36.09190182482044, -0.23027539973053 ], [ 36.092151182328152, -0.230200144033464 ], [ 36.092288346580261, -0.230074660990433 ], [ 36.09247535529051, -0.230062148477723 ], [ 36.092587559562531, -0.230062171242765 ], [ 36.092787019074372, -0.230137518096844 ], [ 36.092924164908759, -0.230099892729753 ], [ 36.093173525135583, -0.230012085537423 ], [ 36.09334809254382, -0.229874059459178 ], [ 36.093560063924059, -0.229723489536577 ], [ 36.093759543695946, -0.229698428082911 ], [ 36.093884234705762, -0.229598045015086 ], [ 36.094058804667199, -0.229447467396449 ], [ 36.094183514100628, -0.229259226411452 ], [ 36.094345604092766, -0.229171401285824 ], [ 36.094470276006398, -0.229171426465018 ], [ 36.09465730345655, -0.229071055851819 ], [ 36.094707191509109, -0.228970657533552 ], [ 36.094844402426915, -0.228606703973771 ], [ 36.09490677127171, -0.228443552989163 ], [ 36.095056393824741, -0.228355725172339 ], [ 36.095168610797316, -0.228292992593249 ], [ 36.095318241736322, -0.228167511455584 ], [ 36.09543046867482, -0.228054574164503 ], [ 36.095430503491428, -0.227878859152195 ], [ 36.095430545732235, -0.227665490858336 ], [ 36.095542787518291, -0.227477246934187 ], [ 36.095667493377618, -0.227301556864871 ], [ 36.095704946935115, -0.227037991317762 ], [ 36.095717458961097, -0.226812074967366 ], [ 36.095879557264837, -0.226686596053786 ], [ 36.095991778256703, -0.22659876135579 ], [ 36.096178803220127, -0.226510940657036 ], [ 36.096228687054328, -0.22643564398751 ], [ 36.096303524688977, -0.226259943753257 ], [ 36.096403291431422, -0.226109350367156 ], [ 36.096490576791687, -0.226034061107673 ], [ 36.096640184551696, -0.226021540376684 ], [ 36.096727469922833, -0.225946251093041 ], [ 36.096889594434593, -0.225682710018653 ], [ 36.097026756225524, -0.225569777259499 ], [ 36.09716389499723, -0.225569804490766 ], [ 36.097288561378093, -0.22559493117345 ], [ 36.097450610567513, -0.225720474822596 ], [ 36.097662510714486, -0.225933885648321 ], [ 36.097899359749306, -0.226071994785086 ], [ 36.098086323359524, -0.226297952215295 ], [ 36.09813615545103, -0.226486229008459 ], [ 36.098260804646586, -0.226599213986133 ], [ 36.098447807754582, -0.226624353229169 ], [ 36.098597387043007, -0.226762445182844 ], [ 36.098821742383272, -0.227038614253549 ], [ 36.098958849218683, -0.227201806681529 ], [ 36.098983763532644, -0.227302220433098 ], [ 36.09907100706068, -0.227440300064169 ], [ 36.09915824720332, -0.22759093115266 ], [ 36.099270439725785, -0.227653709001195 ], [ 36.099395097290788, -0.227729040798259 ], [ 36.099457410738324, -0.22784201353572 ], [ 36.099457375975632, -0.228017729178476 ], [ 36.099569556084042, -0.228143263386892 ], [ 36.099656806128223, -0.228243689728134 ], [ 36.099694175451958, -0.228406862377849 ], [ 36.099719068172178, -0.228620236496413 ], [ 36.099868629076511, -0.228846186259947 ], [ 36.100055585043528, -0.229109797958057 ], [ 36.100142838443254, -0.229197673870774 ], [ 36.100292430174946, -0.229273010917757 ], [ 36.10052930191857, -0.229298160681061 ], [ 36.100703835354835, -0.229335849334435 ], [ 36.100928238052092, -0.229373548055595 ], [ 36.101127705722881, -0.229411241758673 ], [ 36.101277312568278, -0.229411271934964 ], [ 36.101514192911004, -0.229398768247996 ], [ 36.101688743981356, -0.229348599394255 ], [ 36.101900704296753, -0.229260783659454 ], [ 36.102075267891067, -0.229147858319641 ], [ 36.102287238229714, -0.22900983843171 ], [ 36.10243687761492, -0.228846703003969 ], [ 36.102623918749316, -0.228683575950978 ], [ 36.102798472436028, -0.228620855445774 ], [ 36.102935636810805, -0.228495370917037 ], [ 36.103097737885783, -0.228357340782195 ], [ 36.103185063616024, -0.228081232923452 ], [ 36.103334717843389, -0.227842790139307 ], [ 36.103347220091202, -0.227667076383818 ], [ 36.103471914378837, -0.227554140664892 ], [ 36.103621551211525, -0.227403556345363 ], [ 36.103708838764035, -0.227315716075321 ], [ 36.103821108377538, -0.22698940790202 ], [ 36.103846068186968, -0.226863900693188 ], [ 36.103908423946443, -0.226763503906325 ], [ 36.103958315497877, -0.226650553135966 ], [ 36.10409546252005, -0.226612926861991 ], [ 36.104245096832443, -0.226474893820603 ], [ 36.104344859306096, -0.226349402323996 ], [ 36.104407229801943, -0.22617369739327 ], [ 36.10454440635489, -0.225985457596983 ], [ 36.104594315038725, -0.225784648050861 ], [ 36.104756413525521, -0.225659168801808 ], [ 36.104918512916811, -0.225533688611376 ], [ 36.105142960651463, -0.225345465006852 ], [ 36.105392332863531, -0.225207451373506 ], [ 36.105591816105829, -0.225169837181675 ], [ 36.10577883758868, -0.225107118392752 ], [ 36.105903522069859, -0.225044387269366 ], [ 36.105978345347062, -0.224943991746504 ], [ 36.106053163732085, -0.224868699237389 ], [ 36.106215248547585, -0.224818526963749 ], [ 36.106402259440308, -0.224806012337016 ], [ 36.106576816777256, -0.224730739454291 ], [ 36.106776314848993, -0.22461781779842 ], [ 36.106938426580435, -0.224429582302752 ], [ 36.107050687395663, -0.224140926549327 ], [ 36.107088142822256, -0.22386480667115 ], [ 36.107113109617856, -0.223701646252689 ], [ 36.107138077920773, -0.223525934300817 ], [ 36.107125658857356, -0.223274907666371 ], [ 36.107125690374694, -0.223111741445824 ], [ 36.107237934814179, -0.222910944392978 ], [ 36.107312787003025, -0.222659934785721 ], [ 36.107462438108996, -0.222434041890788 ], [ 36.107574680039811, -0.222245795334747 ], [ 36.107686955694653, -0.22188183180949 ], [ 36.10791144810436, -0.221455134138767 ], [ 36.108023697112372, -0.221229233702484 ], [ 36.108160869296761, -0.22106609483477 ], [ 36.108285572966494, -0.220902952607817 ], [ 36.108435211841893, -0.220739816072288 ], [ 36.108485111624866, -0.22057665930359 ], [ 36.108497619920939, -0.220363290936685 ], [ 36.108497665346782, -0.220124817980313 ], [ 36.108584955931683, -0.220024425193261 ], [ 36.108697190385918, -0.219873831926676 ], [ 36.108772020504986, -0.21973578297064 ], [ 36.108772039580906, -0.219635372424222 ], [ 36.108772061030628, -0.219522411237131 ], [ 36.108647413813486, -0.21938432389275 ], [ 36.108610042825561, -0.219221151167462 ], [ 36.108647470923984, -0.219083094997191 ], [ 36.108709854711833, -0.218832082421327 ], [ 36.108847030457007, -0.218643840065029 ], [ 36.109046533871378, -0.218505814880827 ], [ 36.10925849454015, -0.218417996421952 ], [ 36.109470445762426, -0.218380383231536 ], [ 36.109807077652498, -0.218305140108923 ], [ 36.110068890571867, -0.21830519017872 ], [ 36.110393038428796, -0.218317803726079 ], [ 36.110642358695017, -0.218455915006311 ], [ 36.110966490130473, -0.218556386861006 ], [ 36.111290605053362, -0.21874471796521 ], [ 36.111614715298408, -0.218958151418767 ], [ 36.111864016770866, -0.219196672888163 ], [ 36.11202607832692, -0.219272011665978 ], [ 36.112238022971965, -0.219272052349661 ], [ 36.112400107452615, -0.219221878927379 ], [ 36.112587117756838, -0.219221914811997 ], [ 36.11283646457818, -0.219221962654493 ], [ 36.113060877033746, -0.21922200570927 ], [ 36.113160615618042, -0.219222024843599 ], [ 36.113335163137251, -0.219196955137141 ], [ 36.113472328481166, -0.219071469090336 ], [ 36.113684301869434, -0.218920894143635 ], [ 36.113896265791503, -0.218820524638788 ], [ 36.114020974432286, -0.218632278983563 ], [ 36.114145669749263, -0.21851934110288 ], [ 36.1143202339601, -0.2184064127233 ], [ 36.114457386600684, -0.218343682691957 ], [ 36.114619500602473, -0.218142893316482 ], [ 36.114656938156834, -0.217954630824287 ], [ 36.114656964115483, -0.217816566731521 ], [ 36.114669459193038, -0.217665953402185 ], [ 36.114744298799373, -0.21747769799913 ], [ 36.114968756331677, -0.217239266352799 ], [ 36.115031132903304, -0.21702590617939 ], [ 36.11503116814005, -0.216837636488473 ], [ 36.114906551265015, -0.216536381376879 ], [ 36.114806863202091, -0.216260234268096 ], [ 36.114794417495666, -0.216147270119483 ], [ 36.114831836007305, -0.216059417713868 ], [ 36.114919114068769, -0.216021780267157 ], [ 36.114944063455795, -0.215946477106476 ], [ 36.114944082158381, -0.215846066913381 ], [ 36.114806973120864, -0.215670322987033 ], [ 36.114782066683624, -0.215519702564781 ], [ 36.114782097011677, -0.215356536137177 ], [ 36.11486938992676, -0.215243590772371 ], [ 36.114906815357486, -0.215118084396463 ], [ 36.114919307750242, -0.21498002261566 ], [ 36.11483206463766, -0.214829390484447 ], [ 36.114757285965474, -0.214691312327071 ], [ 36.114757323143991, -0.214490491973505 ], [ 36.114819694542739, -0.214302234007615 ], [ 36.114832190052667, -0.214151620616669 ], [ 36.114807268614236, -0.214076308085873 ], [ 36.114595342098724, -0.213975858251162 ], [ 36.114395892549709, -0.213825205258797 ], [ 36.114271250960293, -0.213649463986959 ], [ 36.114233874297568, -0.213511392956724 ], [ 36.114134149526713, -0.213436066516954 ], [ 36.113922216162059, -0.213373270754432 ], [ 36.11373521264003, -0.213335581960137 ], [ 36.113623029483506, -0.213210047750487 ], [ 36.113548244687436, -0.213109623731135 ], [ 36.113436059220597, -0.21299664115962 ], [ 36.113236606567718, -0.212858540073643 ], [ 36.113174283918177, -0.212783220713458 ], [ 36.113099518952687, -0.212569835137624 ], [ 36.113236707892931, -0.212306283487597 ], [ 36.113236742374689, -0.212118014094071 ], [ 36.113249249071686, -0.211904644726735 ], [ 36.113349017453046, -0.211741496991405 ], [ 36.11344878123451, -0.21160345061233 ], [ 36.113585935630589, -0.211528169115371 ], [ 36.113735571435306, -0.211377581210021 ], [ 36.113835331523227, -0.211264637950651 ], [ 36.113910162244835, -0.211114036165128 ], [ 36.114034861317293, -0.210975995161827 ], [ 36.114159551251809, -0.210888158737405 ], [ 36.114221915172863, -0.210737554584943 ], [ 36.114309199827176, -0.210662263739203 ], [ 36.114408971282998, -0.210486563223093 ], [ 36.11442147449737, -0.210285745221629 ], [ 36.114496294639665, -0.210197899523713 ], [ 36.114596062864237, -0.210034751448797 ], [ 36.114720752777963, -0.209946914872125 ], [ 36.114920248306433, -0.209846541287298 ], [ 36.11500754292679, -0.209721044770438 ], [ 36.115194573972779, -0.209608117216633 ], [ 36.115244463290708, -0.209495164514538 ], [ 36.115244485957788, -0.209369651060365 ], [ 36.115306886831533, -0.209018226221109 ], [ 36.115444068376526, -0.208792327555587 ], [ 36.115581236345591, -0.208641736748275 ], [ 36.115593737874875, -0.208453470136806 ], [ 36.11566856605927, -0.208315418638896 ], [ 36.115818203919481, -0.20815227928989 ], [ 36.115843188796106, -0.207876155343351 ], [ 36.115818296144688, -0.207637675400745 ], [ 36.115656256729537, -0.20743682548162 ], [ 36.115531614056252, -0.207261084726633 ], [ 36.115394540430721, -0.20688452037989 ], [ 36.115195121195072, -0.206558150435226 ], [ 36.115045550704814, -0.206344751408749 ], [ 36.114983243165739, -0.206181572805152 ], [ 36.114958334591321, -0.206030953469612 ], [ 36.11495837692938, -0.205792478236408 ], [ 36.114970873538063, -0.205629314020216 ], [ 36.114970893559374, -0.205516352208992 ], [ 36.1148711926907, -0.205302962307115 ], [ 36.114821338466022, -0.205215093884228 ], [ 36.114871237097233, -0.205051936383071 ], [ 36.114983483338264, -0.204826032862367 ], [ 36.115170508512875, -0.2047382068273 ], [ 36.11537000449421, -0.204637832275818 ], [ 36.115557032824441, -0.204537455458645 ], [ 36.115557061579054, -0.20437428801171 ], [ 36.115594481390175, -0.204273884435914 ], [ 36.11565683785588, -0.204160933679254 ], [ 36.115744117730493, -0.204110744561437 ], [ 36.115868791812566, -0.204110766789219 ], [ 36.116005928274731, -0.204135893585174 ], [ 36.116068273710745, -0.20408569909991 ], [ 36.116130635489569, -0.203947645934398 ], [ 36.116192994152179, -0.203822144380389 ], [ 36.116217955061273, -0.203671532903714 ], [ 36.116217974880776, -0.203558570967302 ], [ 36.116218012287142, -0.203345198721832 ], [ 36.11623051733509, -0.203131828687979 ], [ 36.116230550272498, -0.202943558791634 ], [ 36.11621810891905, -0.202792940666535 ], [ 36.116268007245459, -0.202629782851517 ], [ 36.116342833447398, -0.202504282509767 ], [ 36.116529868286705, -0.202366251251954 ], [ 36.116567287045889, -0.202265847520368 ], [ 36.116554857420141, -0.202052473008998 ], [ 36.116554890176381, -0.201864203058184 ], [ 36.116554922901685, -0.201675933107274 ], [ 36.116579879171574, -0.201550424796836 ], [ 36.116604833250051, -0.201437467209027 ], [ 36.116604881132865, -0.201161337634025 ], [ 36.116692192255506, -0.200935429895862 ], [ 36.116717150616296, -0.200797369016755 ], [ 36.116954089830607, -0.200458525411266 ], [ 36.117166087115621, -0.200157330411656 ], [ 36.117290790702206, -0.199981633757493 ], [ 36.117353147707917, -0.19986868258709 ], [ 36.117353186570078, -0.19964275848547 ], [ 36.117378164182661, -0.199391736345939 ], [ 36.117615095734898, -0.199090546262681 ], [ 36.117714865600291, -0.198914845089491 ], [ 36.117714906416488, -0.19867636927092 ], [ 36.117727433272748, -0.198324934425867 ], [ 36.117727469684702, -0.19811156189309 ], [ 36.117590379987199, -0.197810305986457 ], [ 36.117453307302064, -0.19740863973158 ], [ 36.117453326495429, -0.197295677670215 ], [ 36.117453364848593, -0.197069754450962 ], [ 36.117453392520545, -0.196906586727652 ], [ 36.117341217907786, -0.196718297365159 ], [ 36.117129321460737, -0.196429580543221 ], [ 36.117141820972407, -0.196241312629505 ], [ 36.11717931964013, -0.195663958127821 ], [ 36.117191829584755, -0.195412933811694 ], [ 36.117191867570007, -0.195187010643874 ], [ 36.117216821020833, -0.195074052852065 ], [ 36.11725425688978, -0.194873237508776 ], [ 36.117266756144353, -0.19468497045997 ], [ 36.117229381317095, -0.194521796415189 ], [ 36.117054869726026, -0.194333496754871 ], [ 36.117079844067845, -0.194095026199483 ], [ 36.11710480459233, -0.193944414385751 ], [ 36.117192098734492, -0.193806364743159 ], [ 36.117179658259083, -0.193643194950218 ], [ 36.117005163257964, -0.193354485052052 ], [ 36.11696778408006, -0.193216414360191 ], [ 36.116905485021555, -0.19299047983658 ], [ 36.116905512117398, -0.192827313094614 ], [ 36.116893056934238, -0.192752002992857 ], [ 36.11679334316473, -0.192601370224463 ], [ 36.116693635623626, -0.192413083486524 ], [ 36.11656898024308, -0.19230010148535 ], [ 36.116556528005383, -0.19221223978015 ], [ 36.116544105987508, -0.19193610902748 ], [ 36.11645688261175, -0.191647414141372 ], [ 36.116294816785356, -0.191584629799466 ], [ 36.116182616631093, -0.191546957063117 ], [ 36.116107820672994, -0.191496739860962 ], [ 36.116057964197246, -0.191421423578881 ], [ 36.115945793005039, -0.191208032636451 ], [ 36.115908417745956, -0.191044858893526 ], [ 36.115796234126186, -0.190906775947069 ], [ 36.115659101632424, -0.190856547516434 ], [ 36.115521987708405, -0.190693358130706 ], [ 36.115509542706839, -0.190555291850961 ], [ 36.115409851423706, -0.190266595259624 ], [ 36.115322608358682, -0.190090862635555 ], [ 36.115235364120032, -0.18992768075159 ], [ 36.115210449320159, -0.189802164066371 ], [ 36.115210486224115, -0.189576240388677 ], [ 36.115222992790109, -0.189337767154425 ], [ 36.115173149639254, -0.189174592420868 ], [ 36.115060970868299, -0.189011406515047 ], [ 36.11502359329684, -0.18886078548825 ], [ 36.115048641809047, -0.18815791633456 ], [ 36.114936459983596, -0.188007282160099 ], [ 36.114874141782323, -0.187894310126239 ], [ 36.114886647099802, -0.187655837847324 ], [ 36.11484928151684, -0.187429908115503 ], [ 36.114849305815298, -0.187279292377853 ], [ 36.114724661190152, -0.187103553960792 ], [ 36.114687279344189, -0.186978035358906 ], [ 36.114687313678779, -0.186764663395507 ], [ 36.114699815626011, -0.186551293461798 ], [ 36.114787116730312, -0.186363038007608 ], [ 36.11488689350935, -0.186124579000433 ], [ 36.115098880471351, -0.185861036726012 ], [ 36.115310864293157, -0.18562259577864 ], [ 36.115310888349896, -0.185471979978888 ], [ 36.115360781226265, -0.185321373145407 ], [ 36.115448077063121, -0.18517077143695 ], [ 36.115510431567351, -0.185057819636775 ], [ 36.115535377983676, -0.184982515747143 ], [ 36.115535415927965, -0.184744041285523 ], [ 36.115473115324654, -0.184518107506993 ], [ 36.115435727194104, -0.184430241959101 ], [ 36.115311076108469, -0.184292157718489 ], [ 36.115236291863098, -0.184166633136045 ], [ 36.115223842107667, -0.184053669291545 ], [ 36.115223863971949, -0.183915604216258 ], [ 36.115223901698023, -0.183677129819938 ], [ 36.115186521446283, -0.183539059659765 ], [ 36.115061864343929, -0.183438629487821 ], [ 36.114949691824528, -0.183225239516987 ], [ 36.114862457639298, -0.182986750342977 ], [ 36.114862499125053, -0.182723172796698 ], [ 36.114899942607487, -0.182459602107121 ], [ 36.11499971659164, -0.182233694343366 ], [ 36.11497480579731, -0.182083074623768 ], [ 36.114800304442433, -0.181819469367832 ], [ 36.114775404475402, -0.181593542722282 ], [ 36.114775429966386, -0.181430375380796 ], [ 36.114837802575678, -0.181204461639635 ], [ 36.114850286939621, -0.181091502709 ], [ 36.114850310403867, -0.180940886969352 ], [ 36.114850345563056, -0.180714963359792 ], [ 36.114975093454298, -0.180238033417079 ], [ 36.115062396350311, -0.180037226713909 ], [ 36.115149709969344, -0.179761111185498 ], [ 36.115224556769782, -0.179484994566177 ], [ 36.115286922302339, -0.179296734574858 ], [ 36.115311888571952, -0.179095918006804 ], [ 36.115361790251946, -0.178882553700524 ], [ 36.115411681212855, -0.178744497282909 ], [ 36.115411723640968, -0.178468367987125 ], [ 36.115349417978933, -0.178267537813455 ], [ 36.115399319503531, -0.178054173463066 ], [ 36.115411817900366, -0.177853354010125 ], [ 36.11542431344612, -0.177665086171798 ], [ 36.115324601749762, -0.177489352585867 ], [ 36.115199947971597, -0.177363820739265 ], [ 36.115162578450921, -0.177150442898185 ], [ 36.115150128008978, -0.177037479136941 ], [ 36.115150154756698, -0.176861761027173 ] ] ] } },
{ "type": "Feature", "properties": { "OBJECTID": 3, "Id": 0, "Shape_STLe": 13894.137270900001 }, "geometry": { "type": "MultiLineString", "coordinates": [ [ [ 36.025888009573322, -0.182977488647197 ], [ 36.026070852379732, -0.18296078488824 ], [ 36.026320179252558, -0.182960825909789 ], [ 36.026453153667759, -0.182960847786557 ], [ 36.026552876115723, -0.183011065754945 ], [ 36.026652606722699, -0.183011082165866 ], [ 36.0267523454879, -0.18296089700561 ], [ 36.026935196582812, -0.182893992546438 ], [ 36.027068173786759, -0.182877280548872 ], [ 36.027234408426501, -0.1827769055932 ], [ 36.027433888752995, -0.182659802196796 ], [ 36.027550257629464, -0.182559418085439 ], [ 36.027666631922514, -0.182425567113776 ], [ 36.027683272798932, -0.182308433644792 ], [ 36.02776640050083, -0.182191311058891 ], [ 36.028065612480617, -0.182074223811117 ], [ 36.028298331355749, -0.181990593385038 ], [ 36.028514426525334, -0.181923693184251 ], [ 36.028614162701622, -0.18189024261825 ], [ 36.028780372293248, -0.181940470540693 ], [ 36.028996451362474, -0.181973973641903 ], [ 36.02911279334279, -0.182040927330452 ], [ 36.029279003903227, -0.182091156197652 ], [ 36.029495079470344, -0.182141393236469 ], [ 36.029677919255967, -0.182141423147976 ], [ 36.029810910273291, -0.182041041479122 ], [ 36.030093487320364, -0.182007620762309 ], [ 36.030342809698119, -0.18204112843168 ], [ 36.030492401172026, -0.182074620712314 ], [ 36.030774970298474, -0.182091400824172 ], [ 36.031040906715091, -0.182175113008777 ], [ 36.031223730553599, -0.182275546461224 ], [ 36.031489648145431, -0.182476395318931 ], [ 36.031672486459932, -0.182493159198309 ], [ 36.031855313087405, -0.182576857916839 ], [ 36.031988266519619, -0.182710750297189 ], [ 36.032121230789009, -0.182777707857258 ], [ 36.032453650099015, -0.182894899089002 ], [ 36.03263647954472, -0.182961863979372 ], [ 36.032636452425848, -0.183129202542437 ], [ 36.03263640898335, -0.183396943881822 ], [ 36.032769351544978, -0.183597771341986 ], [ 36.033018658182627, -0.183731683132068 ], [ 36.033184839322296, -0.183965984095892 ], [ 36.033234653553642, -0.184283935678618 ], [ 36.033251237328997, -0.184518212003723 ], [ 36.033450672441184, -0.184685583711563 ], [ 36.033616847980852, -0.184953352830593 ], [ 36.033783022588672, -0.185221122028851 ], [ 36.033816244689476, -0.185354998365885 ], [ 36.03396580635065, -0.185572563003187 ], [ 36.034148612061358, -0.185790133239029 ], [ 36.034264932372039, -0.18599095938367 ], [ 36.03429815350237, -0.186124835801493 ], [ 36.034364591992528, -0.186426055703682 ], [ 36.034381189170659, -0.186576663338073 ], [ 36.034497525965037, -0.186677085757328 ], [ 36.034563985571445, -0.186844435746202 ], [ 36.03459717980482, -0.187145651086193 ], [ 36.034746724593198, -0.187463619083205 ], [ 36.034846417077098, -0.187697910672192 ], [ 36.03509570150478, -0.187965693680842 ], [ 36.035394863244257, -0.188166551078647 ], [ 36.035743890319708, -0.188367416100428 ], [ 36.035976566708904, -0.188551528475205 ], [ 36.036109508820381, -0.188752357142974 ], [ 36.03620920487726, -0.188969915130405 ], [ 36.036275672666441, -0.189087063505776 ], [ 36.036408637134556, -0.189154021162664 ], [ 36.036724395892101, -0.189505487097754 ], [ 36.036857339848218, -0.189689582000612 ], [ 36.036907144254386, -0.190057736022865 ], [ 36.036890479946578, -0.190308741551893 ], [ 36.036890440482857, -0.190543015901853 ], [ 36.03689040096971, -0.190777291155192 ], [ 36.03689037271608, -0.190944629460135 ], [ 36.036923585769877, -0.191128708376599 ], [ 36.037073160972035, -0.191262605219857 ], [ 36.037239388518195, -0.191212431672323 ], [ 36.03738899772447, -0.191145522144429 ], [ 36.037638361211577, -0.190944757498417 ], [ 36.037871095046071, -0.190794192898045 ], [ 36.037920991477655, -0.190610128032959 ], [ 36.037921033758771, -0.190359119436581 ], [ 36.037987564366851, -0.190108122168089 ], [ 36.038103977165932, -0.189756730078319 ], [ 36.038303491056169, -0.189455553213206 ], [ 36.038469758787471, -0.18917110463764 ], [ 36.038636046018347, -0.18876951861308 ], [ 36.038868795570075, -0.188518549153482 ], [ 36.039168043793467, -0.188200655516393 ], [ 36.039367538862017, -0.188016615504264 ], [ 36.039483915011296, -0.187882763594661 ], [ 36.039700025749177, -0.187732194370265 ], [ 36.040132278641686, -0.18724698287619 ], [ 36.040232035406966, -0.187096393940202 ], [ 36.040431541511857, -0.18684541818023 ], [ 36.04054792037703, -0.186694831943081 ], [ 36.040680918608679, -0.186560982517879 ], [ 36.040847171230958, -0.186360203223909 ], [ 36.040996794343819, -0.186209622416254 ], [ 36.041046702006149, -0.185958621415323 ], [ 36.041163083551169, -0.185791300919621 ], [ 36.041279451364723, -0.185707650778393 ], [ 36.041395835634127, -0.185523596139308 ], [ 36.041462354346038, -0.185339534094212 ], [ 36.041578744040066, -0.185122011218925 ], [ 36.041678500625551, -0.184971422787304 ], [ 36.041828123645516, -0.184820841669873 ], [ 36.0418946359082, -0.184670246779569 ], [ 36.041994400631474, -0.184469455994835 ], [ 36.042144023619869, -0.184318874763212 ], [ 36.042310282358024, -0.184084626661913 ], [ 36.042459924339099, -0.183816907562727 ], [ 36.042642796140548, -0.183632863437465 ], [ 36.042991916655637, -0.183281507281956 ], [ 36.043274550279939, -0.182913405913675 ], [ 36.043490683471553, -0.182628963157351 ], [ 36.043723445977321, -0.182294320649862 ], [ 36.043906321294408, -0.182093542833005 ], [ 36.043922966751104, -0.181942939376147 ], [ 36.043923004317314, -0.181708663525394 ], [ 36.044039396189334, -0.181474406546591 ], [ 36.044288773501812, -0.181189968683693 ], [ 36.0445215090175, -0.181022665990614 ], [ 36.04467113717142, -0.180838616567594 ], [ 36.044854008797188, -0.180654571555426 ], [ 36.045103366535045, -0.180487271336278 ], [ 36.045302853283104, -0.180353431284773 ], [ 36.045452472549812, -0.180219583155242 ], [ 36.045585497058873, -0.179918392684589 ], [ 36.045751742058727, -0.179767812982158 ], [ 36.04601771410924, -0.179650717530556 ], [ 36.046333558138237, -0.179500161702399 ], [ 36.046516429789655, -0.179316116173729 ], [ 36.046699304975206, -0.179115337325198 ], [ 36.046898798837056, -0.178931294323015 ], [ 36.047065043882348, -0.178780715183888 ], [ 36.047181414356281, -0.178680328744009 ], [ 36.047414128996749, -0.178646898416968 ], [ 36.047796456037304, -0.178529821031974 ], [ 36.047995927223603, -0.17849638444843 ], [ 36.048195408061147, -0.178396012020635 ], [ 36.04831178123758, -0.17827889214855 ], [ 36.048394916072972, -0.17812829859418 ], [ 36.048627651921791, -0.177960994579322 ], [ 36.04886036683439, -0.177927563135053 ], [ 36.049043207176304, -0.177944326349986 ], [ 36.049442107144294, -0.178145199187228 ], [ 36.049940768791508, -0.178162011714149 ], [ 36.050239967820879, -0.178162059244712 ], [ 36.050655516717981, -0.178195593692694 ], [ 36.051021204170247, -0.178195651781926 ], [ 36.051204058878234, -0.178128744811597 ], [ 36.051453380895829, -0.178195720423661 ], [ 36.051602961347278, -0.178312882923249 ], [ 36.0519354054206, -0.17831293575038 ], [ 36.052184735469034, -0.178329709610568 ], [ 36.052483932485345, -0.178346491398743 ], [ 36.052749890212731, -0.178329799403973 ], [ 36.052999254524771, -0.178129029746563 ], [ 36.053165491573679, -0.17802865056859 ], [ 36.053315122912629, -0.177827864966314 ], [ 36.053531239998527, -0.177643823187001 ], [ 36.053680853041925, -0.177560176425001 ], [ 36.053847106681175, -0.177359393286579 ], [ 36.0539136081157, -0.177275732436972 ], [ 36.054096460622773, -0.177225559383583 ], [ 36.054295955417544, -0.177041514727219 ], [ 36.054578559283343, -0.17687421736746 ], [ 36.054711560455168, -0.176723631572858 ], [ 36.054911071726735, -0.176439181909751 ], [ 36.05514382156516, -0.176188205930816 ], [ 36.055310069978937, -0.176020889985905 ], [ 36.055625938388395, -0.175719723934009 ], [ 36.055758944672647, -0.175535669254299 ], [ 36.055908583594402, -0.175284679921501 ], [ 36.056024977766747, -0.175033685342928 ], [ 36.056174616604707, -0.174782695879569 ], [ 36.0562577557154, -0.174598632343621 ], [ 36.05637413695694, -0.174431308244353 ], [ 36.056490515624475, -0.174280718418218 ], [ 36.056540403174438, -0.174146853476198 ], [ 36.056573678567275, -0.173946047804476 ], [ 36.056573706649111, -0.173761972197554 ], [ 36.056540497623729, -0.173527687625491 ], [ 36.056540518000233, -0.173393814050035 ], [ 36.056690141263722, -0.173243230116084 ], [ 36.056806524877565, -0.173059171491964 ], [ 36.05690628610521, -0.172875110273265 ], [ 36.057089166753194, -0.172640859730869 ], [ 36.057155685725078, -0.17244005991299 ], [ 36.057305308931682, -0.172289474857828 ], [ 36.057454939714589, -0.17208868678954 ], [ 36.05752147877805, -0.171754013176165 ], [ 36.057654472001367, -0.171653628420443 ], [ 36.057853959778811, -0.171519785117985 ], [ 36.057937083360713, -0.171436127035685 ], [ 36.058003605565233, -0.171218591752807 ], [ 36.058103366577924, -0.171034531065949 ], [ 36.058203127567687, -0.17085046944182 ], [ 36.058286261141184, -0.170699873935896 ], [ 36.058402641973537, -0.17053255001022 ], [ 36.058435916750099, -0.170331743887613 ], [ 36.058469191490936, -0.170130938656343 ], [ 36.058602182172869, -0.170047287050575 ], [ 36.05878504661748, -0.169913440824892 ], [ 36.058834943681738, -0.169712638022996 ], [ 36.059100954890667, -0.169344525155878 ], [ 36.059300459085748, -0.169093541688602 ], [ 36.05953319409808, -0.168942968341536 ], [ 36.059649552497675, -0.1689262514409 ], [ 36.059815794557828, -0.168792402402202 ], [ 36.05991554136876, -0.168708746448391 ], [ 36.06004853457457, -0.168608360189566 ], [ 36.060181527785879, -0.168507974809274 ], [ 36.060248031351726, -0.168407579463271 ], [ 36.060364389814673, -0.168390862491367 ], [ 36.060547237954388, -0.168374155453149 ], [ 36.060663603849029, -0.168307236257969 ], [ 36.060846453604562, -0.168273794823427 ], [ 36.061012676931014, -0.168273819649452 ], [ 36.061262023844122, -0.168190185882487 ], [ 36.061461501947612, -0.168123278116775 ], [ 36.061793950372817, -0.168106593322373 ], [ 36.061993422743008, -0.16807315519236 ], [ 36.062375748500529, -0.167989540207648 ], [ 36.062575216947067, -0.167989569932121 ], [ 36.062824551882557, -0.167989607084783 ], [ 36.063073886874115, -0.167989644234303 ], [ 36.063373084376977, -0.168023157636117 ], [ 36.063605779803531, -0.168140332323309 ], [ 36.063738743838798, -0.168240757758534 ], [ 36.06375534905532, -0.168357900267698 ], [ 36.063904925691233, -0.168525265909328 ], [ 36.064104391053391, -0.168542030138764 ], [ 36.064220727707585, -0.168675922030456 ], [ 36.064353674475058, -0.168893487673718 ], [ 36.064536513391424, -0.168943718344087 ], [ 36.064769221352982, -0.168977222065464 ], [ 36.064935423005267, -0.169127855087537 ], [ 36.065084954164753, -0.16959643909663 ], [ 36.065151411821077, -0.169813995005146 ], [ 36.065267758395194, -0.169880950286487 ], [ 36.065334222580205, -0.170048302918748 ], [ 36.065433910195267, -0.170366270584904 ], [ 36.06555024180043, -0.170533631711822 ], [ 36.065699803393279, -0.170801402785309 ], [ 36.065816154974321, -0.170834889299838 ], [ 36.06593249906463, -0.170918579175914 ], [ 36.066198442284836, -0.171019025292574 ], [ 36.066348033919191, -0.171085984893706 ], [ 36.066547494702931, -0.171136218517075 ], [ 36.066796830570468, -0.171136256325998 ], [ 36.067145900699586, -0.171136309253082 ], [ 36.067428489253516, -0.171086148671459 ], [ 36.067711077875508, -0.171035988963699 ], [ 36.067860679724774, -0.171036011626977 ], [ 36.068093393353656, -0.171036046878613 ], [ 36.068276251927337, -0.170952402139084 ], [ 36.068409243809761, -0.170868750728646 ], [ 36.068608713369386, -0.170868780908931 ], [ 36.068791559524882, -0.170868808572247 ], [ 36.068974419093834, -0.170785164649698 ], [ 36.069057580804611, -0.170450489046906 ], [ 36.069124108334407, -0.170199483389572 ], [ 36.0691906373969, -0.169931743200871 ], [ 36.069223907316761, -0.169764404091731 ], [ 36.069273817104929, -0.169479927760132 ], [ 36.069473345278709, -0.16907833226977 ], [ 36.069672849575532, -0.168844080810993 ], [ 36.069855730400931, -0.16860982588222 ], [ 36.069955484545382, -0.168475965566759 ], [ 36.069955518981104, -0.168241684200074 ], [ 36.070038656338184, -0.16807435324287 ], [ 36.070171650645015, -0.167973965923795 ], [ 36.070337908794642, -0.167739709178687 ], [ 36.070637140104836, -0.167555675634067 ], [ 36.070770139321198, -0.167421820048943 ], [ 36.070869895837404, -0.167271224985715 ], [ 36.071019537134184, -0.16700349646987 ], [ 36.07116915889889, -0.166869643223003 ], [ 36.071435147546502, -0.166668868955595 ], [ 36.07163464588993, -0.166468085705805 ], [ 36.071800892677118, -0.166317500212351 ], [ 36.071834157259282, -0.16618362967832 ], [ 36.071900675790829, -0.165982826752885 ], [ 36.072100160459257, -0.165882449656301 ], [ 36.072366134619244, -0.165782081361093 ], [ 36.072549005526312, -0.165614764445094 ], [ 36.072781729737727, -0.165547860286658 ], [ 36.072931346716558, -0.165447475732979 ], [ 36.073064345927733, -0.165313619603953 ], [ 36.07349658876565, -0.164912055863097 ], [ 36.073696072708913, -0.164811678414396 ], [ 36.07394541731076, -0.164761510997172 ], [ 36.074178144150721, -0.164677872887588 ], [ 36.074494000934244, -0.164477104756189 ], [ 36.074643610840248, -0.164426923640342 ], [ 36.074859710374454, -0.164376751257116 ], [ 36.075042570374421, -0.164293105754133 ], [ 36.075142317235191, -0.164209448172352 ], [ 36.0752753021861, -0.164175998266408 ], [ 36.075458146982939, -0.164192759363501 ], [ 36.075657615346621, -0.164209522874112 ], [ 36.075873712670443, -0.164176084993655 ], [ 36.076139682756512, -0.164109185111333 ], [ 36.076638373014951, -0.164008850559487 ], [ 36.077087182066599, -0.164008915509071 ], [ 36.077436269629509, -0.163908559171984 ], [ 36.077718860347339, -0.163858396142997 ], [ 36.077968196241301, -0.163875166813295 ], [ 36.078383748531223, -0.163958899167541 ], [ 36.078716180379345, -0.164092823485738 ], [ 36.078965533215062, -0.163992452579012 ], [ 36.079414343203169, -0.163992517470334 ], [ 36.07974679685136, -0.163975830871797 ], [ 36.079946272248421, -0.163942391281058 ], [ 36.080129128256409, -0.163892213706165 ], [ 36.080444974603658, -0.163775117537398 ], [ 36.080827306226503, -0.163691500237428 ], [ 36.081026784184665, -0.16364132497035 ], [ 36.081076673757835, -0.163490720947093 ], [ 36.081209676019043, -0.163340128870352 ], [ 36.081326038928914, -0.163306677150823 ], [ 36.081592000735917, -0.163306715411657 ], [ 36.081774848954048, -0.163306741713884 ], [ 36.082090679070468, -0.163306787141324 ], [ 36.082389902255557, -0.163189687277857 ], [ 36.082589383731211, -0.163122778036768 ], [ 36.082722364776075, -0.163122797137445 ], [ 36.08293847289508, -0.16302242083236 ], [ 36.083221069678899, -0.162938787831048 ], [ 36.083387298672456, -0.162922077863509 ], [ 36.083703118868371, -0.162989061129507 ], [ 36.083952458475331, -0.162989096899042 ], [ 36.084334767529455, -0.16307282447858 ], [ 36.084650598366181, -0.163072869800083 ], [ 36.0848999476598, -0.163005967532498 ], [ 36.085165936345504, -0.162821924428297 ], [ 36.085431922697374, -0.162654616881423 ], [ 36.085664646984469, -0.162604445931771 ], [ 36.085880748526215, -0.162554272582074 ], [ 36.086196631659753, -0.162186155803476 ], [ 36.086612208328745, -0.162119276921502 ], [ 36.086944664055757, -0.162102589539795 ], [ 36.087044414110828, -0.162002196042125 ], [ 36.087260537028314, -0.161801410452159 ], [ 36.087676111711602, -0.16175126612044 ], [ 36.088075051988604, -0.161784791496368 ], [ 36.088490594097692, -0.161968932368302 ], [ 36.088673441082804, -0.161985693183238 ], [ 36.088773159268584, -0.16211958483365 ], [ 36.089005860691508, -0.162236760665143 ], [ 36.089172085818035, -0.162253519157707 ], [ 36.089438048580966, -0.162253557065376 ], [ 36.08962088249271, -0.162370725874699 ], [ 36.089770482506943, -0.162404216830326 ], [ 36.089920084896285, -0.162420972078175 ], [ 36.090119559676822, -0.162404266620323 ], [ 36.090269176239154, -0.162320613870637 ], [ 36.090568390586462, -0.162287186875037 ], [ 36.090718003948176, -0.162220269800311 ], [ 36.090900882748301, -0.162019479729306 ], [ 36.090967402373714, -0.161818672157771 ], [ 36.091050569688761, -0.161433785608551 ], [ 36.091133711185641, -0.161232981230773 ], [ 36.091349849604576, -0.160931786617995 ], [ 36.091582586666192, -0.160797941695885 ], [ 36.091848553210397, -0.160781244385766 ], [ 36.092031419383758, -0.160664127181238 ], [ 36.092280765473731, -0.160630692636458 ], [ 36.092463616313438, -0.160630718405827 ], [ 36.092663068223899, -0.16078135929035 ], [ 36.092995491644643, -0.161015692386918 ], [ 36.0931783300435, -0.161099392516633 ], [ 36.093361181033771, -0.161099418354523 ], [ 36.093560654059431, -0.16109944653935 ], [ 36.093843241654476, -0.161099486464661 ], [ 36.094092595157747, -0.161015847317401 ], [ 36.094308695888529, -0.160982408975332 ], [ 36.094441675981983, -0.160999161721569 ], [ 36.094624515521147, -0.161082861943828 ], [ 36.094907082389419, -0.161233514926187 ], [ 36.095139782867157, -0.161367426035672 ], [ 36.095339242194569, -0.161467862705601 ], [ 36.095538707124099, -0.16153482961742 ], [ 36.095655048053366, -0.161668724370081 ], [ 36.095854505110054, -0.161785896035393 ], [ 36.096087211314547, -0.161886338457027 ], [ 36.096286661396924, -0.16205371401981 ], [ 36.096386362971344, -0.162304750005571 ], [ 36.09650270625788, -0.162421910023901 ], [ 36.096635686601118, -0.162438663862841 ], [ 36.096718777839811, -0.162606023925138 ], [ 36.096851729956839, -0.162823594967347 ], [ 36.096851696953102, -0.163057881977994 ], [ 36.096934794306797, -0.163175038270382 ], [ 36.097217363887907, -0.163308957136474 ], [ 36.097566410296679, -0.16354329424021 ], [ 36.097649486343322, -0.163811063179841 ], [ 36.097682696704972, -0.164062090062495 ], [ 36.0978322811495, -0.164212725032528 ], [ 36.098031743121489, -0.164296427489257 ], [ 36.098247840881221, -0.164296458589256 ], [ 36.098613553205148, -0.164229571447456 ], [ 36.099079000290665, -0.164179434445239 ], [ 36.09936157744675, -0.164263148930896 ], [ 36.099594273800932, -0.164430531061142 ], [ 36.099876839180205, -0.164597920444125 ], [ 36.100342251110241, -0.164798805311183 ], [ 36.100558351701473, -0.164782101512326 ], [ 36.100707957902358, -0.164782123089237 ], [ 36.100874174330947, -0.164865821035821 ], [ 36.100990508320749, -0.165049921670125 ], [ 36.101090229723049, -0.165167080023594 ], [ 36.101256448572158, -0.165234043974808 ], [ 36.101505770616818, -0.165384693083679 ], [ 36.101688620612315, -0.165401454532313 ], [ 36.101888087990027, -0.165451688371487 ], [ 36.102104174550639, -0.165535393717399 ], [ 36.102154023616521, -0.16566927999159 ], [ 36.1022038352138, -0.166070924393864 ], [ 36.102253682719557, -0.166221545699371 ], [ 36.102419908896394, -0.166238304870772 ], [ 36.102519634225381, -0.166321993471335 ], [ 36.102536223607139, -0.166556284084852 ], [ 36.10260268206526, -0.166790582885336 ], [ 36.102719008713045, -0.167024888096227 ], [ 36.102885204465132, -0.167259200651488 ], [ 36.102968289794099, -0.167460031083612 ], [ 36.10305137509534, -0.167660862448561 ], [ 36.103184339217705, -0.167794761126443 ], [ 36.103200945298241, -0.167911907732685 ], [ 36.103250778048036, -0.168162938411174 ], [ 36.103234113668776, -0.168447429336768 ], [ 36.103267325687249, -0.16868172258197 ], [ 36.103383666668414, -0.168815618949779 ], [ 36.103450133597192, -0.168982978001808 ], [ 36.103583085406783, -0.169200551055079 ], [ 36.103732648016212, -0.169501801711482 ], [ 36.103782495156558, -0.169652422465518 ], [ 36.103799073175466, -0.169953653464019 ], [ 36.103832275075703, -0.170254886947035 ], [ 36.103832235698405, -0.170522645448797 ], [ 36.103815580595047, -0.170740196409662 ], [ 36.10374905962945, -0.17094100488773 ], [ 36.103715766544852, -0.171258963442243 ], [ 36.103782186948145, -0.171744285327613 ], [ 36.103782129819685, -0.172129188042677 ], [ 36.10383196078709, -0.172380219034271 ], [ 36.104014793685586, -0.172514125883353 ], [ 36.104230871843974, -0.172648037795505 ], [ 36.104397076715777, -0.172815412274473 ], [ 36.104513424853728, -0.172899104108464 ], [ 36.10471287999215, -0.173033013632215 ], [ 36.104779334792887, -0.173284047388458 ], [ 36.104879019765384, -0.173635496429061 ], [ 36.104962086584791, -0.173953472025787 ], [ 36.105095022577743, -0.174271456174361 ], [ 36.105144833878967, -0.174656366955549 ], [ 36.105211284935265, -0.174924135941332 ], [ 36.105294385211351, -0.175024558000419 ], [ 36.105460589921343, -0.175191932075035 ], [ 36.105543663969236, -0.175459703717321 ], [ 36.105560256636039, -0.175660525902964 ], [ 36.105610099637012, -0.175827883117119 ], [ 36.105693187162167, -0.176011979607058 ], [ 36.105975731332272, -0.176313252220442 ], [ 36.106324771368655, -0.176597800194552 ], [ 36.106324733090602, -0.176848824229991 ], [ 36.106391176052433, -0.177166797888566 ], [ 36.10652413698115, -0.177317433120886 ], [ 36.106557342201398, -0.17758519742275 ], [ 36.106607183308732, -0.177769289927603 ], [ 36.106806633174166, -0.177936669763177 ], [ 36.107155703067804, -0.178020399419419 ], [ 36.107521409042839, -0.178020456339816 ], [ 36.107754131904713, -0.178020492558279 ], [ 36.108069963537723, -0.178054010967605 ], [ 36.108319321596412, -0.177970375247645 ], [ 36.108502193177841, -0.177853258973388 ], [ 36.108651828750162, -0.177669197132563 ], [ 36.108751607685129, -0.177401452949734 ], [ 36.10881812238226, -0.17725084922547 ], [ 36.109001001626304, -0.177083527489763 ], [ 36.10903428110786, -0.176865978187379 ], [ 36.109100793197619, -0.176732108586437 ], [ 36.109117439279807, -0.176581496177721 ], [ 36.10921720017943, -0.176430896575466 ], [ 36.109333574042523, -0.176347239909391 ], [ 36.109400076814097, -0.176280309745165 ], [ 36.109383468915738, -0.176179897479131 ], [ 36.10916739772459, -0.175995779040685 ], [ 36.109034441370369, -0.17581167433997 ], [ 36.109001228031538, -0.175594113889439 ], [ 36.109167486429044, -0.175410055113106 ], [ 36.109167509190243, -0.175259440130596 ], [ 36.109051173340951, -0.175092072252004 ], [ 36.108951452155118, -0.174974912233055 ], [ 36.108901603810558, -0.174841024757729 ], [ 36.108901636576022, -0.17462347033605 ], [ 36.108951532795537, -0.174439392798836 ], [ 36.109084547215261, -0.174238593702673 ], [ 36.109134436743595, -0.17410472141207 ], [ 36.109134466858322, -0.173903901139588 ], [ 36.109151120081719, -0.173703084292608 ], [ 36.109151142617954, -0.173552469311798 ] ] ] } },
{ "type": "Feature", "properties": { "OBJECTID": 4, "Id": 0, "Shape_STLe": 18.520899999899999 }, "geometry": { "type": "MultiLineString", "coordinates": [ [ [ 36.109151142617954, -0.173552469311798 ], [ 36.109151167634934, -0.173385119232672 ] ] ] } },
{ "type": "Feature", "properties": { "OBJECTID": 5, "Id": 0, "Shape_STLe": 2140.4905083499998 }, "geometry": { "type": "MultiLineString", "coordinates": [ [ [ 36.015296698931451, -0.196690824922454 ], [ 36.015745259645279, -0.197639577647568 ], [ 36.016786132597616, -0.198633612336134 ], [ 36.017485970584481, -0.199636622372745 ], [ 36.018176896548233, -0.200287267003073 ], [ 36.018571651863681, -0.20099206872904 ], [ 36.019020327351441, -0.201290305405502 ], [ 36.019343306849549, -0.201877639789567 ], [ 36.019343277598487, -0.202040269978499 ], [ 36.019343249950566, -0.20219386515688 ], [ 36.019343219024748, -0.202365530356185 ], [ 36.019280377397614, -0.202473939000342 ], [ 36.019163686639757, -0.20259137279358 ], [ 36.019082902360488, -0.20266363808845 ], [ 36.019011076342984, -0.202826255092127 ], [ 36.019011038780242, -0.203034060269947 ], [ 36.018975117573667, -0.203160543793919 ], [ 36.018876375928222, -0.203277980772869 ], [ 36.018813529320781, -0.203413494334519 ], [ 36.018813501477489, -0.203567089438007 ], [ 36.018831426051577, -0.203702617830478 ], [ 36.018831386680837, -0.203919457979985 ], [ 36.018750582622594, -0.204100143219542 ], [ 36.018615906393563, -0.204416343565775 ], [ 36.018544060369329, -0.204687380428187 ], [ 36.018526074944916, -0.204886147191594 ], [ 36.018543989447693, -0.20507588559301 ], [ 36.018561905571104, -0.205256588996584 ], [ 36.018579796849615, -0.205572817467762 ], [ 36.018714390707238, -0.205708367537066 ], [ 36.018795137081888, -0.20584390762947 ], [ 36.018866903891229, -0.206006551091636 ], [ 36.018974580626889, -0.206105956206343 ], [ 36.019127145217851, -0.206124054617214 ], [ 36.019297658999889, -0.206142156372434 ], [ 36.019396376120191, -0.206160244767928 ], [ 36.019459188265387, -0.206214466529307 ], [ 36.01967453684518, -0.206440381957673 ], [ 36.01984501247783, -0.206666289100278 ], [ 36.020060372705395, -0.206828959577677 ], [ 36.020374461814846, -0.206946473466043 ], [ 36.020509069079033, -0.207009743751304 ], [ 36.020553935393842, -0.207045892216944 ], [ 36.020742383592925, -0.207145312676241 ], [ 36.020957752280381, -0.207262808250531 ], [ 36.021038513670476, -0.20731703350452 ], [ 36.021119281736674, -0.207335118665812 ], [ 36.021253899085352, -0.207344178878556 ], [ 36.021370565577321, -0.207362270761251 ], [ 36.021585952725722, -0.207380381119006 ], [ 36.02189108931811, -0.207380438210601 ], [ 36.022151356284738, -0.207362416834572 ], [ 36.022483413534545, -0.207380549018825 ], [ 36.022716750130499, -0.207398662741054 ], [ 36.022869306899921, -0.207461936555983 ], [ 36.023066728427658, -0.207570393990937 ], [ 36.023237216109862, -0.207733056675618 ], [ 36.023380798318598, -0.207796328880571 ], [ 36.023533363517572, -0.207814427557898 ], [ 36.023730801848195, -0.207832534647613 ], [ 36.023883367096118, -0.207850633332406 ], [ 36.024044888608813, -0.20796811924409 ], [ 36.024116655513325, -0.208130763602017 ], [ 36.024134561249298, -0.208365678268821 ], [ 36.024197355153476, -0.208519285927946 ], [ 36.024296044195808, -0.208690970460281 ], [ 36.024529357689929, -0.208835575210006 ], [ 36.024762669539847, -0.208989215073 ], [ 36.025013915562475, -0.209224173896269 ], [ 36.025175430390156, -0.209377800354142 ], [ 36.025327958801277, -0.209594670579317 ], [ 36.025408696838284, -0.209775387045571 ] ] ] } }
]
}
