{
"type": "FeatureCollection",
"name": "wells",
"crs": { "type": "name", "properties": { "name": "urn:ogc:def:crs:OGC:1.3:CRS84" } },
"features": [
{ "type": "Feature", "properties": { "id": 1, "Easting": 36, "Northing": 0 }, "geometry": { "type": "Point", "coordinates": [ 36.052963951618878, -0.212006554570418 ] } },
{ "type": "Feature", "properties": { "id": 2, "Easting": 36, "Northing": 0 }, "geometry": { "type": "Point", "coordinates": [ 36.050877015256468, -0.188153046189879 ] } },
{ "type": "Feature", "properties": { "id": 3, "Easting": 36, "Northing": 0 }, "geometry": { "type": "Point", "coordinates": [ 36.071991140496628, -0.210302446663065 ] } },
{ "type": "Feature", "properties": { "id": 4, "Easting": 36, "Northing": 0 }, "geometry": { "type": "Point", "coordinates": [ 36.062056319647994, -0.207698405985826 ] } },
{ "type": "Feature", "properties": { "id": 5, "Easting": 36, "Northing": 0 }, "geometry": { "type": "Point", "coordinates": [ 36.059452453326543, -0.213841955645491 ] } },
{ "type": "Feature", "properties": { "id": 6, "Easting": 36, "Northing": 0 }, "geometry": { "type": "Point", "coordinates": [ 36.068606584868213, -0.215551390686646 ] } },
{ "type": "Feature", "properties": { "id": 7, "Easting": 36, "Northing": 0 }, "geometry": { "type": "Point", "coordinates": [ 36.057748243799971, -0.208330081879783 ] } },
{ "type": "Feature", "properties": { "id": 8, "Easting": 36, "Northing": 0 }, "geometry": { "type": "Point", "coordinates": [ 36.047982774935981, -0.212746500922506 ] } },
{ "type": "Feature", "properties": { "id": 9, "Easting": 36, "Northing": 0 }, "geometry": { "type": "Point", "coordinates": [ 36.094851692387671, -0.205029888835726 ] } },
{ "type": "Feature", "properties": { "id": 10, "Easting": 36, "Northing": 0 }, "geometry": { "type": "Point", "coordinates": [ 36.054329122527626, -0.20663081053605 ] } },
{ "type": "Feature", "properties": { "id": 11, "Easting": 36, "Northing": 0 }, "geometry": { "type": "Point", "coordinates": [ 36.049707098212558, -0.206494428785536 ] } },
{ "type": "Feature", "properties": { "id": 12, "Easting": 36, "Northing": 0 }, "geometry": { "type": "Point", "coordinates": [ 36.057497611174448, -0.204670729068282 ] } },
{ "type": "Feature", "properties": { "id": 13, "Easting": 36, "Northing": 0 }, "geometry": { "type": "Point", "coordinates": [ 36.050971987149744, -0.209566654222441 ] } },
{ "type": "Feature", "properties": { "id": 14, "Easting": 36, "Northing": 0 }, "geometry": { "type": "Point", "coordinates": [ 36.062029999614801, -0.204355317517636 ] } },
{ "type": "Feature", "properties": { "id": 15, "Easting": 36, "Northing": 0 }, "geometry": { "type": "Point", "coordinates": [ 36.055710129708686, -0.212720863684362 ] } }
]
}
